SACN62 CYKY 050300 
METAR CYKY 050300Z 28020KT 15SM FEW200 M04/M07 A2978 RMK CI1 SLP116=
