SACN65 CYAS 050300 
LWIS CYAS 050300Z AUTO 36024G34KT M18/M21 A2957=
