SACN62 CYBL 050300 
METAR CYBL 050300Z 12004KT 15SM FEW020 SCT045 BKN066 03/02 A3016 RMK SC1SC3AC2 SLP220=
