SAEQ01 SEQU 050300
METAR SEQM 050300Z NIL=
METAR SEMT 050300Z 20007KT 9999 SCT040 25/22 Q1015 RMK A3000=
METAR SELT 050300Z 01007KT 9999 SCT100 10/07 Q1032=
METAR SEGU 050300Z 24007KT 200V280 9999 SCT033 BKN100 27/21 Q1014 NOSIG RMK A2996=
METAR SESA 050300Z 22009KT CAVOK 23/20 Q1016 RMK A3001=
METAR SECU 050300Z AUTO VRB03KT ////NDV ////// 15/13 Q1028=
