SACN65 CYGX 050300 
LWIS CYGX 050300Z AUTO 11005KT 040V150 M16/M18 A2992=
