SABZ19 SBSN 050300
METAR SBSN 050300Z 09010KT 8000 -RA SCT010 OVC100 24/24 Q1012=
