SACN64 CZCP 050300
METAR CZCP 050300Z AUTO 07017KT ////SM //// NCD M32/M36 A3018=
