SANL32 EHDB 050255
METAR EHEH 050255Z AUTO 23005KT 200V260 8000 BR OVC033 06/06 Q1035
BLU=
METAR EHKD 050255Z AUTO 25008KT 9999 FEW008 SCT014 OVC035 07/07 Q1032
GRN=
