SAGB20 GBYD 050300
METAR GBYD 050300Z 09010KT 9000 HZ NSC 20/05 Q1013=
