SACN62 CYYD 050300 
METAR CYYD 050300Z 14008KT 15SM -SN SCT040 BKN075 M02/M04 A2973 RMK SC3AC3 SLP093=
