SAAK41 KNKA 050258
METAR PAAD 050255Z AUTO 24008KT 10SM OVC008 M37/M40 A3034 RMK AO2
     T13661400=
