SACN62 CYUL 050300 
METAR CYUL 050300Z 35005KT 10SM -SN FEW008 BKN014 BKN030 OVC060 M01/M03 A2968 RMK SF2SC3SC2SC1 SLP055=
