SPCN48 CWAO 050259
SPECI CYOY 050259Z AUTO 00000KT 5/8SM -SN VV010 M03/M04 A2962=
