FTUS80 KWBC 050300 AAA
TAF AMD
KAGS 050256Z 0503/0524 28018G28KT P6SM SKC
     FM050600 30012G24KT P6SM SKC
     FM051000 30006KT P6SM SKC
     FM051500 29009KT P6SM SKC=
KDNL 050257Z 0503/0524 28017G28KT P6SM SKC
     FM050600 30011G20KT P6SM SKC
     FM051000 29007KT P6SM SKC=
KLEB 050259Z 0503/0524 00000KT 1 1/2SM -SN BR BKN003 OVC007
     FM050900 32009KT P6SM BKN045
     FM051800 32012G19KT P6SM SKC=
KLUK 050257Z 0503/0524 26008KT P6SM OVC035
     FM051400 23011KT P6SM SCT030
     FM051700 21011G20KT P6SM SCT150=
KSLC 050259Z 0503/0606 16005KT P6SM SCT080
     FM050800 14006KT P6SM OVC250
     FM051400 18006KT P6SM BKN120 OVC200
     FM052000 32010KT P6SM VCSH SCT030 BKN060 OVC080=
