SACO20 SKBO 050258
METAR SKBO 050300Z 28006KT 9999 FEW017 13/10 A3042 NOSIG=
METAR SKBQ 050300Z 35007KT 310V020 9999 FEW015 27/23 A2994 NOSIG=
METAR SKCL NIL=
METAR SKCG 050300Z 01010KT 9999 FEW020 27/24 A2995=
METAR SKCC 050300Z VRB03KT 9999 SCT018 SCT080 26/20 A3005=
METAR SKLT NIL=
METAR SKRG 050200Z 02003KT 9999 BKN010 16/15 A3039 NOSIG=
METAR SKSP 050300Z 04016KT 9999 DZ SCT016 28/24 A3005=
METAR SKBG 050300Z 31003KT 9999 SCT010 BKN040 20/20 A3010=
METAR SKPE 050300Z 13006KT 9999 FEW017 SCT080 22/20 A3014=
