SACO20 SKBO 050258
METAR SKBQ 050300Z 35007KT 310V020 9999 FEW015 27/23 A2994 NOSIG=
