SPCN61 CYXR 050259 
SPECI CYXR 050259Z AUTO 32006KT 9SM BKN050 BKN065 OVC100 M10/M12 A2984 RMK SLP127=
