SACN62 CYRB 050300 
METAR CYRB 050300Z 31013KT 6SM IC FEW028 M35/M38 A2979 RMK SC1 SLP105=
