SACN62 CYGP 050300 
METAR CYGP 050300Z 29004KT 15SM OVC030 M02/M04 A2961 RMK SC8 SLP029=
