SABZ24 SBPA 050300
METAR SBPA 050300Z 11009KT CAVOK 21/20 Q1010=
