SACN62 CYXE 050300 
METAR CYXE 050300Z 29017G23KT 15SM DRSN FEW050 BKN180 M04/M07 A2965 RMK SC2AC5 PRESRR SLP073=
