SACH12 SCSC 050300
METAR SCIP 050300Z 13008KT 9999 FEW020 BKN060 BKN100 20/18 Q1016
NOSIG=
METAR SCPQ 050300Z AUTO 24005KT CAVOK 12/07 Q1018=
METAR SCTN 050300Z AUTO 17003KT 150V210 9999 SCT048 12/09 Q1017=
METAR SCCH 050300Z NIL=
METAR SCRM 050300Z 36009KT 0200 FG VV001 01/01 Q0995 NOSIG=
METAR SCVM 050300Z 33005KT CAVOK 14/13 Q1015=
METAR SCGE 050300Z NIL=
METAR SCIC 050300Z AUTO VRB02KT 9999 NCD 22/11 Q1011=
METAR SCCY 050300Z NIL=
METAR SCIR 050300Z NIL=
