SACN62 CYGL 050300 
METAR CYGL 050300Z 30003KT 15SM -SN FEW021 OVC130 M15/M16 A2985 RMK SC2AC6 SLP130=
