SACN62 CYCD 050300 
METAR CYCD 050300Z 00000KT 15SM FEW030 SCT062 BKN130 03/02 A3024 RMK SC2SC2AC1 SLP243=
