SALV32 EVRA 050250
METAR EVVA 050250Z AUTO 33018G29KT 9999 FEW044 02/M02 Q1014=
METAR EVLA 050250Z AUTO 33011G21KT 300V360 9999 FEW018 BKN022
BKN060 01/M01 Q1016=
