SASD31 OEJD 050300
METAR OEDF 050300Z VRB02KT 8000 RA FEW030CB SCT035 OVC080  15/11
Q1015 RETS NOSIG=
METAR OEDR 050300Z NIL=
METAR OEJN 050300Z NIL=
METAR OEMA 050300Z 03004KT CAVOK 13/01 Q1017 NOSIG=
METAR OERK 050300Z 01003KT 4000 TS BR FEW030CB BKN040 15/14 Q1015
NOSIG=
METAR OERY 050300Z NIL=
METAR OYAA 050300Z NIL=
METAR OYSN 050300Z NIL=
