SPCN61 CYQD 050258 
SPECI CYQD 050258Z AUTO 09008G16KT 6SM -SN OVC013 M07/M09 A2950 RMK SLP012=
