SPCN46 CWAO 050259
SPECI CYBN 050259Z AUTO 30009G18KT 280V090 1 3/4SM -SN VV002 M02/M03 A2979 RMK VSBY VRBL 0.5V8.0=
