SACU31 MUHA 050300
METAR
MUHA 050255Z 33006KT 310V010 9000 BKN026 24/21 Q1022=
MUVR 050250Z 32008KT 8000 FEW020 BKN070 24/22 Q1022=
MUSC 050250Z 28002KT 9000 FEW030 22/21 Q1021=
MUCC 050251Z 11002KT 9000 FEW020 23/22 Q1020=
MUCM 050250Z 06004KT 9000 FEW020 23/22 Q1021=
MUHG 050250Z 14001KT 9000 FEW030 BKN070 24/22 Q1021=
MUCU 050252Z 35003KT 9000 FEW020 22/19 Q1020=
MUCL  NIL=
MUCF 050259Z AUTO VRB01KT 23/22 Q1021=
