SABZ21 SBPL 050300
METAR SBPL 050300Z 23006KT 9999 -RA BKN017 OVC070 24/23 Q1015=
