SACN62 CYKA 050300 
METAR CYKA 050300Z 04009KT 350V100 40SM BKN100 BKN210 05/M04 A3011 RMK AC6CI1 SLP210=
