SACN62 CYQF 050300 
METAR CYQF 050300Z 27010KT 15SM FEW170 M03/M11 A2988 RMK AC1 SLP162=
