SAZA42 FAOR 050300
METAR FAOR 050300Z 03004KT 360V070  CAVOK 15/13 Q1021 NOSIG=
