SACN62 CYRT 050300 
METAR CYRT 050300Z 34003KT 15SM IC SKC M32/M36 A3017 RMK SLP223=
