SACN49 CWAO 050300
METAR CYCX 050300Z AUTO 03003KT 5/8SM -SN VV004 M01/M01 A2959 RMK PCPN 0.5MM PAST HR SLP024=
