SACN44 CWAO 050300
METAR CYED 050300Z AUTO 27006KT 9SM CLR M04/M08 A2982 RMK SLP138=
