SACN31 CWAO 050300
METAR CYZX 050300Z 10002KT 15SM -SHRA BKN028 OVC034 01/00 A2959 RMK SC6SC2 PCPN VRY LGT SLP021=
