SACN31 CWAO 050300
METAR CYBG 050300Z 27007KT 15SM -SN SCT022 OVC035 M06/M08 A2969 RMK SC4SC4 SLP066=
