SACN31 CWAO 050300
METAR CYYR 050300Z 26010KT 15SM FEW065 SCT110 M10/M14 A2958 RMK SC2AS2 SLP020=
