SACN46 CWAO 050300
METAR CYBN 050300Z AUTO 30013G18KT 280V090 1 1/4SM -SN VV002 M02/M04 A2980 RMK VSBY VRBL 0.4V8.0 SLP100=
