SAID32 WIII 050230
METAR WIOO 050230Z 36005KT 9999 BKN012 28/25 Q1010 NOSIG=
