SACN62 CYZV 050300 
METAR CYZV 050300Z 02004KT 350V060 15SM FEW054 M07/M10 A2963 RMK SC2 SLP041=
