SACN62 CYEG 050300 
METAR CYEG 050300Z 27005KT 20SM FEW060 M04/M10 A2984 RMK SC1 SC TR SLP146=
