SACN62 CYCB 050300 
METAR CYCB 050300Z 25005KT 250V310 15SM IC FEW120 M39/M44 A3020 RMK AC1 AC TR SLP236=
