SACN62 CYYU 050300 
METAR CYYU 050300Z 29002KT 3SM -SN SCT034 BKN046 OVC067 M11/M12 A2988 RMK SN1SC3SC3AC1 SLP141=
