SACN62 CYYF 050300 
METAR CYYF 050300Z 16009KT 15SM BKN085 05/M05 A3020 RMK AC5 SLP236=
