SACN62 CYYZ 050300 
METAR CYYZ 050300Z 31013G24KT 15SM BKN041 M00/M05 A2980 RMK SC5 SLP100=
