SACN48 CWAO 050300
METAR CYOY 050300Z AUTO 00000KT 5/8SM -SN VV010 M03/M04 A2962 RMK SLP041=
