SACN47 CWAO 050300
METAR CYWA 050300Z AUTO 30005KT 9SM OVC018 M04/M06 A2977 RMK SLP090=
