SAZZ40 CWAO 050300 RRK
METAR KAPG 050258Z AUTO 34004KT 9SM R22/5500FT -RA BKN019 BKN026 OVC033
      07/05 A2966 RMK AO2 PRESRR SLP047 T00740048 50020 PNO TSNO $=
METAR KCVS 050258Z AUTO 24015KT 10SM CLR 07/M04 A3021 RMK AO2 SLP230
      T00721037 58002 $=
METAR KFFO 050256Z 28014KT 10SM FEW020 OVC038 01/M03 A3007 RMK AO2A
      SLP193 T00101026 52021=
METAR KGFA 050258Z AUTO 25016G23KT 10SM CLR 00/M10 A3011 RMK AO2 PK
      WND 25028/21 SLP224 T00041104 52053 $=
METAR KGOV 050258Z AUTO 30005KT 10SM M M03/M05 A2993 RMK AO2 SLP157
      60000 T10261050 51014 $=
METAR KGRF 050258Z 12005KT 10SM BKN037 05/05 A3035 RMK AO2A RAE06 SLP284
      P0000 60000 T00490049 50003 $=
METAR KGRK 050258Z 00000KT 7SM CLR 11/M01 A3030 RMK AO2A SLP262 T01071012
      52006 $=
METAR KINS 050258Z AUTO 00000KT 10SM CLR 04/M01 A3033 RMK AO2 SLP278
      T00411013 52005 $=
METAR KMTC 050256Z 31012KT 12SM VCSH OVC027 M00/M04 A2996 RMK AO2A
      SLP156 T10051037 52018=
METAR KOFF 050256Z 16009KT 10SM FEW240 03/M05 A2999 RMK AO2A SLP173
      RVRNO $=
METAR KSUU 050258Z AUTO 05003KT 5SM HZ CLR 07/04 A3040 RMK AO2 SLP302
      T00710039 51005 $=
METAR KTCM 050258Z AUTO 18005KT 10SM SCT031 BKN040 OVC060 05/05 A3036
      RMK AO2 RAB0159E17 SLP287 P0000 60000 T00500050 53003 $=
METAR MROC 050300Z 09009KT 060V130 CAVOK 21/16 A3013 NOSIG=
METAR ORBI 050300Z 14004KT 4500 BR NSC 04/03 Q1014 NOSIG=
METAR PASC 050253Z COR 22006KT 5SM BR OVC011 M36/M41 A3033 RMK AO2
      SLP274 T1361 50000 $=
METAR PASY 050255Z 03013KT 7SM BKN033 M01/M06 A2995 RMK AO2A SLP144
      T10061057 55000 RVRNO PNO FZRANO=
