SATU32 LTAA 050250
METAR LTAG 050250Z 05010KT CAVOK 07/01 Q1011 NOSIG=
METAR LTAN 050250Z 00000KT 6000 FEW040 M03/M04 Q1013 BECMG TL0350
3500 BR=
METAR LTAP 050250Z 00000KT 8000 SCT040 SCT080 M01/M02 Q1013 NOSIG=
METAR LTAT 050250Z 17003KT 140V200 3500 -SN BR SCT010 BKN030 OVC080
00/00 Q1013 TEMPO TL0400 4000=
METAR LTAU 050250Z 26003KT 8000 SCT010 BKN025 OVC080 M02/M03 Q1012
NOSIG=
METAR LTBF 050250Z 00000KT CAVOK M02/M02 Q1016 BECMG 2000 BR=
METAR LTBQ 050250Z 00000KT CAVOK M03/M03 Q1015 TEMPO 3000 BR=
METAR LTBU 050250Z 31002KT 7000 NSC 02/01 Q1013=
METAR LTCC 050250Z 10005KT 7000 -RA FEW015 BKN035 OVC090 04/04 Q1011
NOSIG=
METAR LTCE 050250Z 00000KT 6000 SCT035 BKN070 M11/M12 Q1010 NOSIG=
METAR LTCJ 050250Z 05006KT 9999 SCT040 BKN090 05/04 Q1011=
