SACN65 CYGT 050300 
LWIS CYGT 050300Z AUTO 33018KT M33/M36 A2978=
