SACN65 CYCS 050300 
LWIS CYCS 050300Z AUTO 29011KT M37/M42 A3019=
