SACN62 CYQK 050300 
METAR CYQK 050300Z 14009G15KT 3/4SM -SN VV007 M05/M05 A2974 RMK SN8 /S01/ SLP097=
