SACN64 CYUS 050300
METAR CYUS 050300Z AUTO 15008KT 090V240 ////SM //// BKN003 BKN007 BKN016 M40/M45 A3012=
