SAAK41 KNKA 050300
SPECI PABV 050259Z AUTO 00000KT 1 1/4SM HZ BKN002 M25/M28 A2969 RMK
    AO2 FZRANO=
