SAUS70 KWBC 050300
METAR
KSGH 050256Z AUTO 28015G21KT 10SM BKN016 BKN024 OVC030 01/M01
     A3005 RMK AO2 SLP188 60000 T00061011 53019=
KNFE 050256Z AUTO 33009G17KT 10SM SCT019 BKN030 OVC060 13/08 A2964
     RMK AO2 RAE0158 SLP040 P0000 60003 T01330078 53023=
KNSE 050256Z AUTO 32004KT 10SM CLR 09/00 A3030 RMK AO2 SLP249
     6//// T00940000 53020 PNO $=
KBTA 050255Z AUTO 17011KT 10SM CLR 03/M04 A2995 RMK AO2
     T00251036=
KDKB 050255Z AUTO 28009KT 10SM OVC009 M03/M05 A3014 RMK AO2
     T10351047=
KGRN 050255Z AUTO 29011G17KT 10SM CLR 07/M02 A2988 RMK AO2
     T00721025=
KIBM 050255Z AUTO 27019G22KT 10SM CLR 07/M06 A3006 RMK AO2
     T00731058=
KIGQ 050255Z AUTO 31006KT 10SM OVC026 M01/M06 A3014 RMK AO2
     T10131058=
KJOT 050255Z AUTO 27005KT 10SM OVC016 M02/M04 A3016 RMK AO2
     T10181045 TSNO=
KLCK 050255Z AUTO 29009KT 10SM OVC041 01/M01 A3003 RMK AO2
     T00071014=
KMQB 050255Z AUTO 19003KT 10SM CLR M05/M05 A3020 RMK AO2
     T10471051=
KMWA 050255Z AUTO 00000KT 10SM CLR M01/M02 A3028 RMK AO2
     T10131024=
KOLG 050255Z AUTO 17005KT 10SM OVC017 M03/M05 A2992 RMK AO1=
KPPQ 050255Z AUTO 21005KT 10SM CLR M01/M02 A3019 RMK AO2
     T10081025=
KSAR 050255Z AUTO 00000KT 10SM CLR 00/M03 A3026 RMK AO2
     T10031029=
KTZR 050255Z AUTO 30007KT 10SM OVC039 01/M01 A3004 RMK AO2
     T00061013=
K0E0 050255Z AUTO 29009KT 10SM CLR 05/M06 A3035 RMK AO2
     T00501060=
KBKS 050255Z AUTO 14004KT 10SM CLR 13/02 A3039 RMK AO1
     T01270024=
KDKB 050255Z AUTO 28009KT 10SM OVC009 M03/M05 A3014 RMK AO2
     T10351047=
KDUX 050255Z AUTO 18010KT 10SM CLR 07/M03 A3008 RMK AO2
     T00681032=
KECS 050255Z AUTO 10SM BKN110 04/M06 A2994 RMK AO2=
KF00 050255Z AUTO 00000KT 10SM CLR 05/M01 A3032 RMK AO2
     T00461010=
KGNC 050255Z AUTO 23006KT 10SM CLR 06/M04 A3031 RMK AO2
     T00601037=
KGOP 050255Z AUTO 00000KT 10SM CLR 10/01 A3032 RMK AO2=
KGUC 050256Z AUTO 34003KT 10SM CLR M16/M18 A3042 RMK AO2 SLP453
     T11611178 53016 FZRANO=
KHRX 050255Z AUTO 22012G17KT 7SM CLR 10/M02 A3015 RMK AO2
     T01011021=
KJAS 050255Z AUTO 00000KT 10SM CLR 07/06 A3039 RMK AO2
     T00660064=
KJDD 050255Z AUTO 00000KT 10SM CLR 03/00 A3033 RMK AO2=
KLUV 050255Z AUTO 22009KT 10SM BKN090 BKN110 06/M06 A3027 RMK
     AO2=
KMRF 050256Z AUTO 29004KT 10SM CLR 02/M08 A3041 RMK AO2 SLP308
     T00171083 51008 FZRANO=
KORG 050255Z AUTO 00000KT 10SM CLR 08/06 A3039 RMK AO2
     T00750060=
KOSA 050255Z AUTO 00000KT 10SM CLR 06/M01 A3034 RMK AO1
     T00611013=
KOZA 050255Z AUTO 10SM CLR 03/M05 A3034 RMK AO2=
KPVW 050255Z AUTO 22012G17KT 10SM CLR 09/M04 A3019 RMK AO2
     T00891045=
KRYW 050255Z AUTO 15005KT 10SM CLR 14/00 A3033 RMK AO2
     T01440004=
KSAA 050255Z AUTO 24019G30KT 10SM CLR 00/M07 A3022 RMK AO2=
KU68 050255Z AUTO 28008KT 10SM 01/M17 A3007 RMK AO2=
KVIS 050256Z AUTO 00000KT 7SM CLR 12/09 A3037 RMK AO2 SLP294
     T01170089 53013=
KAFK 050255Z AUTO 20012KT 10SM CLR 02/M05 A3001 RMK AO2
     T00231046=
KERY 050256Z AUTO 23006KT 7SM -SN BKN011 BKN019 OVC060 M02/M04
     A2991 RMK AO2 T10251037=
KHZL 050256Z AUTO 31009G15KT 10SM BKN014 OVC020 01/M01 A2966 RMK
     AO2=
KJKJ 050256Z AUTO 16016KT 10SM CLR M03/M08 A2972 RMK AO2=
KONZ 050256Z AUTO 32011G20KT 10SM OVC027 00/M05 A2999 RMK AO2
     T00001051=
KOQN 050255Z AUTO 33010G15KT 10SM -RA SCT023 BKN036 OVC060 06/02
     A2963 RMK AO2=
KOZW 050255Z AUTO 29010G15KT 10SM OVC022 M01/M05 A3000 RMK AO2
     T10151050=
KUNI 050255Z AUTO 30008KT 10SM SCT019 BKN025 OVC032 01/M01 A3002
     RMK AO2 T00131010=
KVVV 050256Z AUTO 13011KT 10SM CLR M05/M07 A2974 RMK AO2=
