SAUS70 KWBC 050300 RRE
METAR
KAXX 050255Z AUTO 20014KT 10SM CLR 01/M09 A3034 RMK AO2
     T00061092=
KBBD 050255Z AUTO 21005KT 10SM CLR 11/M05 A3031 RMK AO2=
KBBF 050255Z AUTO 21007KT 10SM CLR 60/44 A3038 RMK A01=
KBDG 050255Z AUTO 36004KT 10SM M05/M07 A3049 RMK AO1 T10511075=
KBIE 050255Z AUTO 19012KT 10SM CLR 04/M02 A3000 RMK AO2
     T00401022=
KBJJ 050256Z AUTO 32009KT 10SM FEW014 OVC029 M01/M03 A2996 RMK AO2
     UPB02E14FZRAB14E16 SLP156 P0000 60002 I1001 I3001 T10111028
     50013=
KBMT 050255Z AUTO 00000KT 10SM CLR 10/07 A3037 RMK AO2 T01030071
     TSNO=
PAAD 050255Z AUTO 24008KT 10SM OVC008 M37/M40 A3034 RMK AO2
     T13661400=
KBOS 050254Z 35008KT 1 1/2SM -DZ BR OVC004 06/03 A2949 RMK AO2 SFC
     VIS 2 SLP984 P0000 60000 T00560028 58012=
K4R5 050255Z AUTO 20005KT 10SM OVC020 M02/M05 A2995 RMK AO2
     T10181051=
KBVN 050255Z AUTO 15004KT 10SM CLR 03/01 A2989 RMK AO2
     T00320006=
KENL 050255Z AUTO 23004KT 10SM CLR 00/M02 A3025 RMK AO2
     T10021016=
KFEP 050255Z AUTO 27008KT 10SM OVC007 M05/M05 A3014 RMK AO2
     T10481054=
KFET 050255Z AUTO 17007KT 10SM CLR 04/M01 A2994 RMK AO2
     T00351015=
KHSB 050255Z AUTO 28004KT 10SM CLR 00/M01 A3028 RMK AO2
     T00041014=
KI63 050255Z AUTO 16003KT 10SM CLR M04/M04 A3016 RMK AO2
     T10381043=
KI74 050255Z AUTO 30010G17KT 10SM OVC029 00/M01 A3004 RMK AO2=
KLXN 050255Z AUTO 25004KT 10SM CLR 05/M01 A2992 RMK AO2
     T00541012=
KPMV 050255Z AUTO 17014KT 10SM CLR 02/M04 A2998 RMK AO2
     T00221037=
KRCR 050255Z AUTO 29009KT 10SM OVC022 00/M03 A3011 RMK AO2=
KRYM 050256Z AUTO 15009KT 10SM BKN150 M06/M08 A2986 RMK AO2 SLP134
     T10571083 57020 $=
KRZL 050255Z AUTO 29008KT 10SM OVC023 M01/M05 A3015 RMK AO2=
KSLO 050255Z AUTO 00000KT 10SM CLR M01/M02 A3024 RMK AO2
     T10061018=
KHFF 050256Z AUTO 33014G24KT 10SM SCT085 09/M02 A2990 RMK AO2
     SLP141 T00851022 52053 $=
PAGA 050256Z AUTO 00000KT 10SM FEW001 M38/ A2999 RMK AO2 SLP164
     T1378 53005 FZRANO=
KSGH 050256Z AUTO 28015G21KT 10SM BKN016 BKN024 OVC030 01/M01
     A3005 RMK AO2 SLP188 60000 T00061011 53019=
KERV 050255Z AUTO 00000KT 10SM CLR 05/M02 A3035 RMK AO2
     T00501019=
KF05 050255Z AUTO 06003KT 10SM CLR 05/M01 A3023 RMK AO1
     T00541008=
KHHF 050255Z AUTO 23004KT 10SM CLR 06/M01 A3013 RMK AO2
     T00561007=
KIKG 050255Z AUTO 16003KT 10SM CLR 10/06 A3039 RMK AO2
     T01030057=
KL35 050255Z AUTO 00000KT 10SM CLR 00/M05 A3042 RMK AO2=
KLHM 050255Z AUTO 00000KT 3/4SM VV005 06/06 A3037 RMK AO1=
KMDD 050255Z AUTO 20007KT 10SM CLR 10/M05 A3028 RMK AO2
     T01021053=
KONP 050255Z AUTO 15009KT 10SM SCT028 SCT039 BKN048 06/05 A3043
     RMK AO2=
KSZT 050255Z AUTO 21005KT 10SM CLR 02/M05 A3028 RMK AO2=
KMHP 050255Z AUTO 29019G30KT 250V310 10SM CLR 11/M02 A3010 RMK AO2
     T01121022=
KMHV 050240Z AUTO 05004KT 10SM CLR 12/M04 A3030 RMK A01=
KMMI 050255Z AUTO 32007G14KT 10SM OVC038 04/M03 A3024 RMK A01=
KMNV 050255Z AUTO 31008G14KT 10SM BKN036 OVC041 03/M03 A3021 RMK
     A01=
KMOR 050255Z AUTO 31014G21KT 10SM BKN031 OVC040 02/M02 A3012 RMK
     A01=
KMPZ 050255Z AUTO 00000KT 10SM CLR M03/M05 A3016 RMK AO2=
KMRC 050255Z AUTO 00000KT 10SM OVC037 01/M02 A3028 RMK A01=
KMVH 050305Z AUTO 28023G38KT 10SM CLR M00/M15 A2997 RMK AO2=
KN03 050255Z AUTO 30007KT 10SM SCT010 BKN016 OVC037 00/00 A2970
     RMK AO2=
KN38 050255Z AUTO 31011G19KT 10SM OVC021 M01/M04 A2970 RMK AO2=
KNQA 050255Z AUTO 00000KT 10SM CLR 02/M01 A3031 RMK A01=
KO32 050255Z AUTO 36007KT 10SM CLR 10/08 A3037 RMK AO2=
KO69 050255Z AUTO 33004KT 10SM CLR 07/07 A3042 RMK A01=
KOEL 050255Z AUTO 22007KT 10SM CLR 02/M03 A2998 RMK AO1
     T00171031=
