SAUS80 KWBC 050300
METAR
KP60 050256Z AUTO 00000KT M10/M12 A3019 RMK AO1 SLP307 60003
     T11001122 51030=
KP53 050256Z AUTO 27005KT M01/M04 A2993 RMK AO1 SLP146 P0001 60003
     T10111044 50002=
KMHS 050256Z AUTO 00000KT 10SM FEW022 BKN120 02/M01 A3036 RMK AO2
     SLP317 T00221006 57002=
KGNR 050256Z AUTO 00000KT M01/M02 A2950 RMK AO1 SLP004 60001
     T10111022 58016=
KMEH 050256Z AUTO 00000KT 10SM CLR M03/M07 A3034 RMK AO2 SLP302
     T10281067 51007=
KIZA 050255Z AUTO 00000KT 7SM CLR 10/09 A3033 RMK AO2=
KPSN 050255Z AUTO 10004KT 10SM CLR 09/03 A3034 RMK AO2
     T00950034=
KSEP 050255Z AUTO 16004KT 10SM CLR 09/00 A3031 RMK AO2
     T00900001=
KANJ 050255Z AUTO 36003KT 9SM OVC021 M02/M06 A2990 RMK AO2
     SNB39E54 SLP133 P0000 60000 T10221056 51012=
KBZN 050256Z 23012G20KT 10SM CLR M03/M09 A3023 RMK AO2 SLP289
     T10281089 51055 $=
KCAE 050256Z 28016G27KT 10SM CLR 09/M01 A3001 RMK AO2 PK WND
     29032/0158 SLP163 T00891011 51046 $=
KCHS 050256Z 30017G29KT 10SM FEW060 13/00 A2997 RMK AO2 PK WND
     32029/0249 SLP147 T01280000 53038 $=
KCLI 050255Z AUTO 24004KT 10SM CLR M05/M08 A3006 RMK AO2
     T10501078=
KD07 050256Z AUTO 27011KT 05/M02 A2976 RMK AO1 SLP103 T00501017
     53011=
KFSD 050256Z 18013KT 10SM SCT170 SCT210 BKN250 02/M02 A2980 RMK
     AO2 SLP110 T00221022 58028 $=
KINW 050256Z AUTO 00000KT 10SM CLR 02/M02 A3038 RMK AO2 SLP307
     T00171017 53006=
TJSJ 050256Z 00000KT 10SM FEW028 FEW070 26/21 A3008 RMK AO2 SLP184
     60001 T02560211 50004 $=
K8D3 050256Z AUTO 17014G21KT 01/M03 A2971 RMK AO1 SLP091 T00111033
     56025=
KO54 050255Z AUTO 03004KT 10SM BKN120 03/01 A3041 RMK AO1=
KOFK 050256Z AUTO 20014KT 10SM CLR 03/M01 A2986 RMK AO2 SLP130
     T00331006 58021 $=
KRFI 050255Z AUTO 00000KT 10SM CLR 03/02 A3035 RMK AO2
     T00340023=
KSCF 050255Z AUTO 30010KT 10SM CLR 15/09 A3039 RMK A01=
KJAX 050256Z 29017G24KT 10SM CLR 15/02 A3011 RMK AO2 PK WND
     28026/0206 SLP198 T01500017 53041 $=
KLWS 050256Z 19009KT 10SM CLR 04/M05 A3040 RMK AO2 SLP302
     T00441050 53018=
KMOB 050256Z 30004KT 10SM CLR 07/M01 A3034 RMK AO2 SLP273
     T00721006 51024=
KMQE 050251Z AUTO 35007KT 03/03 A2945 RMK AO1 SLP986 T00330033
     58014=
KSFO 050256Z 27008KT 10SM SCT180 12/08 A3040 RMK AO2 SLP293
     T01170078 51002=
KSFY 050255Z AUTO 00000KT 10SM OVC008 M04/M05 A3016 RMK AO2=
KSHV 050256Z 00000KT 10SM CLR 05/02 A3033 RMK AO2 SLP271 T00500017
     50005=
KSOA 050255Z AUTO 00000KT CLR 04/M04 A3038 RMK AO2=
K12N 050254Z AUTO VRB06KT 04/00 A2960 RMK AO1 SLP028 T00440000
     53007=
K2I0 050255Z AUTO 28006KT 10SM OVC036 04/M01 A3026 RMK AO2
     T00381015=
K40J 050255Z AUTO 33011G15KT 10SM CLR 13/00 A3023 RMK AO2
     T01311003=
K48A 050255Z AUTO 30025G32KT 10SM CLR 09/M04 A3018 RMK AO2
     T00901037=
KBIH 050256Z AUTO 06003KT 10SM CLR 04/M04 A3030 RMK AO2 SLP271
     T00391044 51011=
KCUL 050255Z AUTO 29007KT 10SM CLR 01/M01 A3026 RMK AO2=
KACY 050254Z 33014G23KT 10SM -RA FEW025 BKN042 OVC050 08/06 A2955
     RMK AO2 RAB02 SLP005 P0002 60004 T00830056 53002=
KGIC 050255Z AUTO 21008KT 10SM CLR 00/M07 A3037 RMK AO1=
KSMP 050256Z AUTO VRB05KT 10SM BKN014 M02/M03 A3024 RMK AO2 SLP271
     60001 T10171033 50001 $=
KS39 050255Z AUTO 15005KT 10SM BKN120 01/M06 A3037 RMK AO2=
KWMC 050256Z AUTO VRB03KT 10SM CLR M03/M07 A3036 RMK AO2 SLP294
     T10331067 51007=
KY23 050255Z AUTO 18004KT 10SM OVC012 M04/M06 A2999 RMK AO2
     T10401058=
KAYS 050255Z AUTO 31013G25KT 10SM CLR 13/M06 A3014 RMK AO2
     T01271063 TSNO=
KCIR 050255Z AUTO 00000KT 10SM CLR M01/M01 A3029 RMK AO2
     T10101011=
