SAUS70 KWBC 050300 RRJ
METAR
KAUN 050255Z AUTO 00000KT 1 1/4SM BR CLR 06/06 A3037 RMK A01=
KBBF 050255Z AUTO 21007KT 10SM CLR 60/44 A3038 RMK A01=
KBDG 050255Z AUTO 36004KT 10SM M05/M07 A3049 RMK AO1 T10511075=
KLRU 050255Z AUTO 23003KT 10SM CLR 06/M07 A3037 RMK AO2
     T00571069=
KRDM 050256Z 14003KT 10SM CLR 01/M06 A3037 RMK AO2 SLP302
     T00061061 50002=
KSBP 050256Z 32013KT 10SM CLR 12/11 A3032 RMK AO2 SLP270 T01170106
     50006=
KSBS 050255Z AUTO 10004KT 10SM BKN065 M06/M09 A3031 RMK AO1
     T10631089=
KT20 050255Z AUTO 15003KT 10SM CLR 14/M01 A3035 RMK AO2
     T01421013=
KTRK 050255Z AUTO 12003KT 10SM CLR M01/M05 A3037 RMK AO2=
KUKI 050256Z AUTO 00000KT 10SM CLR 07/04 A3044 RMK AO2 SLP307
     T00670039 53008=
KVQT 050255Z AUTO 01008KT 10SM CLR 16/06 A3040 RMK A01=
K3N8 050255Z AUTO 16008KT 10SM CLR M04/M07 A2971 RMK AO2
     T10431073=
KAHQ 050255Z AUTO 17006KT 10SM CLR 00/M02 A2996 RMK AO2
     T00021020=
KAIT 050256Z AUTO 16011G14KT 10SM CLR M05/M08 A2983 RMK AO2=
KART 050256Z AUTO 35003KT 10SM SCT038 OVC045 00/M02 A2972 RMK AO2
     SLP069 T00001017 52001=
KJMS 050256Z AUTO 19007KT 10SM CLR M07/M08 A2964 RMK AO2 SLP062
     T10671083 56008=
KLJF 050256Z AUTO 15007KT 114V174 10SM M04/M04 A2986 RMK AO2=
KMLE 050255Z AUTO 15005KT 10SM CLR 02/M04 A2998 RMK AO2
     T00161043=
KMWM 050256Z AUTO 17012KT 10SM CLR M01/M04 A2984 RMK AO2=
KMWO 050255Z AUTO 28008KT 10SM SCT020 OVC035 01/M02 A3012 RMK AO2
     T00121015=
KUBE 050255Z AUTO 16008KT 10SM BKN065 OVC085 M05/M06 A2995 RMK
     AO2=
KUYF 050255Z AUTO 30014G19KT 10SM BKN015 OVC021 00/00 A3003 RMK
     AO2=
KVPZ 050256Z AUTO 30006KT 10SM OVC029 M01/M07 A3013 RMK AO2 SLP211
     T10111067 51019=
KVQT 050255Z AUTO 01008KT 10SM CLR 16/06 A3040 RMK A01=
KW22 050255Z AUTO 00000KT 10SM FEW003 BKN009 OVC014 14/14 A2990
     RMK AO2=
KW99 050255Z AUTO 00000KT 10SM -RA SCT030 SCT039 BKN046 04/01
     A2980 RMK AO2 T00440006=
KXLL 050255Z AUTO 33006KT 10SM BKN026 BKN032 BKN075 04/01 A2966
     RMK AO2=
KY31 050255Z AUTO 7SM -SN BKN019 BKN032 OVC041 M02/M02 A2994 RMK
     AO2 T10161020=
K21D 050256Z AUTO 17008KT 10SM CLR M03/M05 A2997 RMK AO2=
KC09 050255Z AUTO 28008KT 10SM OVC014 M03/M04 A3015 RMK AO2
     T10261043=
KDAY 050256Z 28012G21KT 9SM FEW014 OVC033 01/M02 A3008 RMK AO2
     SLP194 T00111022 53023=
KDTL 050255Z AUTO 16010KT 10SM CLR M05/M06 A2975 RMK AO2=
KGON 050256Z 33009KT 10SM BKN007 OVC016 07/06 A2946 RMK AO2
     RAB16E33 SLP976 P0000 60000 T00720061 58013 $=
KHHV 050255Z AUTO 00000KT 10SM FEW021 18/05 A3042 RMK A01=
KHWV 050256Z AUTO 33010KT 10SM -RA FEW021 BKN055 OVC080 08/06
     A2950 RMK AO2 RAB09 SLP990 P0001 60001 T00780056 55004
     TSNO=
KLOM 050255Z AUTO 33009KT 300V360 10SM -RA SCT020 BKN042 OVC049
     05/02 A2961 RMK AO2 T00460024 60001=
KMDS 050255Z AUTO 18012KT 10SM CLR M01/M01 A2977 RMK AO2=
KMQS 050255Z AUTO 33012G18KT 10SM SCT019 SCT031 SCT043 05/03 A2964
     RMK AO2=
KOCQ 050255Z AUTO 24004KT 10SM CLR M04/M07 A3004 RMK AO1
     T10411075=
KOGA 050255Z AUTO 24009KT 10SM CLR 04/M02 A2997 RMK AO2
     T00441018=
KOZW 050256Z AUTO 29009G14KT 10SM OVC022 M01/M05 A3000 RMK AO2
     T10151051=
KRZN 050255Z AUTO 16009KT 10SM SCT090 BKN110 M03/M06 A2993 RMK AO2
     T10351060=
KTIP 050255Z AUTO 30007KT 10SM OVC018 M02/M04 A3019 RMK AO2
     T10161036=
KVWU 050254Z AUTO 15008G14KT 10SM M04/M06 A2975 RMK AO2=
KVYS 050255Z AUTO 28007KT 10SM OVC011 M04/M06 A3017 RMK AO2
     T10381056=
KWBF 050300Z AUTO VRB05G12KT 10SM FEW028 FEW034 18/07 A3036 RMK
     A01=
KWJF 050256Z 29007KT 10SM CLR 09/01 A3031 RMK AO2 SLP277 T00940006
     53011 $=
