SAUS24 KWBC 050300 RRK
METAR KIFP 050255Z AUTO 03010KT 10SM CLR 14/01 A3031 RMK AO2=
METAR KWMC 050256Z AUTO VRB03KT 10SM CLR M03/M07 A3036 RMK AO2
     SLP294 T10331067 51007=
METAR KCXP 050255Z AUTO 09009KT 10SM CLR 06/M05 A3033 RMK AO2=
METAR KFLG 050257Z AUTO 25003KT 10SM CLR M01/M07 A3041 RMK AO2
     SLP320 T10111067 53005=
