SAUS70 KWBC 050300 RRH
METAR
KCUH 050255Z AUTO 00000KT 10SM CLR 00/M03 A3022 RMK AO2
     T00041031=
KCVB 050255Z AUTO 00000KT 10SM CLR 09/M01 A3037 RMK AO2
     T00851014=
KCVC 050255Z AUTO 31011G22KT 10SM CLR 03/M03 A3019 RMK AO2 PNO=
KCXP 050255Z AUTO 09009KT 10SM CLR 06/M05 A3033 RMK AO2=
KCXW 050255Z AUTO 18003KT 10SM CLR 02/00 A3031 RMK A01=
KDCY 050255Z AUTO 31013G16KT 10SM BKN018 OVC027 01/M01 A3023 RMK
     AO2 T00121012=
KDKX 050255Z AUTO 30010G19KT 10SM BKN035 OVC044 04/M02 A3019 RMK
     A01=
KDNN 050255Z AUTO 33010KT 10SM OVC040 05/M03 A3027 RMK AO2=
KDPL 050255Z AUTO 31015G20KT 10SM BKN032 BKN042 OVC050 12/07 A2982
     RMK AO2=
KDQH 050255Z AUTO 30012G22KT 10SM CLR 12/M03 A3018 RMK AO2
     T01161027=
KDUB 050255Z AUTO 29012G21KT 10SM SCT022 BKN033 OVC041 M02/M08
     A3010 RMK AO2=
KE11 050255Z AUTO 22007KT 10SM CLR 09/M04 A3027 RMK AO2
     T00871037=
KEAU 050256Z AUTO 18006KT 9SM OVC013 M03/M06 A3000 RMK AO2 SLP171
     T10281061 58007=
KEKS 050255Z AUTO VRB04KT 10SM CLR M04/M14 A3029 RMK AO2=
KELA 050255Z AUTO 20006KT 10SM CLR 12/06 A3037 RMK AO2
     T01230055=
KETN 050255Z AUTO 00000KT 10SM CLR 03/M04 A3027 RMK AO2
     T00291038=
KF44 050255Z AUTO 00000KT 10SM CLR 05/01 A3032 RMK AO2=
KF45 050250Z AUTO 30014G20KT 10SM SCT040 OVC110 19/16 A3015 RMK
     AO2 TSNO=
KFCH 050255Z AUTO 34004KT 10SM CLR 12/10 A3037 RMK A01=
KFDW 050315Z AUTO 31014G21KT 10SM SCT050 07/M02 A3000 RMK AO1=
KFGX 050255Z AUTO 31016G20KT 10SM SCT018 OVC031 01/M01 A3012 RMK
     AO2 T00091013=
KFOT 050255Z AUTO 24003KT 10SM BKN110 08/07 A3049 RMK AO1=
KFTN 050255Z AUTO 12007KT 10SM CLR 13/M03 A3035 RMK A01=
KFYE 050255Z AUTO 00000KT 10SM CLR M01/M02 A3029 RMK A01=
KFYM 050255Z AUTO 00000KT 10SM OVC037 02/M03 A3029 RMK A01=
KFZG 050255Z AUTO 31012G22KT 10SM CLR 11/M01 A3020 RMK AO2
     T01091015 PWINO=
KGBG 050255Z AUTO 00000KT 10SM BKN009 M04/M04 A3018 RMK AO2
     T10371044=
PAPG 050258Z 00000KT 7SM -SN FEW008 BKN023 OVC040 00/M01 A2955 RMK
     AO2 P0000=
PASC 050253Z COR 22006KT 5SM BR OVC011 M36/M41 A3033 RMK AO2
     SLP274 T1361 50000 $=
K57C 050255Z AUTO 26005KT 10SM OVC031 M02/M06 A3009 RMK AO2
     T10251056=
KAMN 050256Z AUTO 29009KT 10SM -SN SCT036 OVC044 M01/M05 A3002 RMK
     AO2 T10071053=
KBIE 050255Z AUTO 19012KT 10SM CLR 04/M02 A3000 RMK AO2
     T00401022=
KCXY 050256Z AUTO 32011KT 10SM FEW036 BKN047 OVC060 08/00 A2969
     RMK AO2 SLP057 60000 T00830000 53017=
KEBS 050255Z AUTO 16014KT 10SM CLR M04/M05 A2998 RMK AO2=
KFOA 050255Z AUTO 26003KT 10SM CLR M01/M03 A3025 RMK AO2 TSNO=
KFWC 050255Z AUTO 00000KT 10SM CLR 00/M02 A3025 RMK AO1
     T00001022=
KGHG 050255Z AUTO 34007G17KT 310V010 1 1/4SM BR OVC001 06/06 A2946
     RMK AO2=
KGPC 050255Z AUTO 28004KT 10SM OVC018 00/M03 A3018 RMK AO2=
KHCD 050256Z AUTO 14007KT 10SM CLR M04/M05 A2988 RMK AO2
     T10411055=
KHDE 050255Z AUTO 21011KT 10SM CLR 04/00 A2993 RMK AO2
     T00430000=
KHPN 050256Z 33014KT 10SM -DZ SCT016 OVC050 06/04 A2953 RMK AO2
     SLP004 P0000 60000 T00560039 53005=
KIKT 050255Z AUTO VRB06G15KT 10SM CLR 17/05 A3034 RMK A01=
KJXN 050256Z AUTO 30009G16KT 10SM OVC022 M01/M07 A3002 RMK AO2
     SLP175 T10111067 51022=
KOGS 050255Z AUTO 31008KT 8SM SCT010 BKN014 OVC030 M01/M02 A2969
     RMK AO2=
KONL 050255Z AUTO 22009KT 10SM CLR 05/00 A2981 RMK AO2
     T00480000=
KOSC 050255Z AUTO 29007KT 10SM SCT027 OVC048 M01/M05 A2994 RMK AO2
     T10061048=
KRPJ 050255Z AUTO 27012KT 10SM OVC008 M04/M05 A3014 RMK AO2
     T10421051=
KSTE 050255Z AUTO 00000KT 10SM SCT015 M05/M07 A3003 RMK AO2
     T10551070=
