SAUS70 KWBC 050300 RRB
METAR
KGHG 050255Z AUTO 34007G17KT 310V010 1 1/4SM BR OVC001 06/06 A2946
     RMK AO2=
KGON 050256Z 33009KT 10SM BKN007 OVC016 07/06 A2946 RMK AO2
     RAB16E33 SLP976 P0000 60000 T00720061 58013 $=
KGPC 050255Z AUTO 28004KT 10SM OVC018 00/M03 A3018 RMK AO2=
KGRD 050256Z AUTO 28012G18KT 10SM CLR 06/M02 A3007 RMK AO2 SLP184
     T00561017 53037=
KHCD 050256Z AUTO 14007KT 10SM CLR M04/M05 A2988 RMK AO2
     T10411055=
KHDC 050255Z AUTO 00000KT 10SM CLR 06/04 A3037 RMK AO2=
KHDE 050255Z AUTO 21011KT 10SM CLR 04/00 A2993 RMK AO2
     T00430000=
KHHV 050255Z AUTO 00000KT 10SM FEW021 18/05 A3042 RMK A01=
KHII 050255Z AUTO 03006KT 10SM CLR 15/01 A3029 RMK AO2=
KHJH 050255Z AUTO 20012G17KT 10SM CLR 05/00 A2998 RMK AO2
     T00461005=
KHPN 050256Z 33014KT 10SM -DZ SCT016 OVC050 06/04 A2953 RMK AO2
     SLP004 P0000 60000 T00560039 53005=
KHQI 050255Z AUTO 33006KT 10SM FEW033 SCT043 BKN049 17/03 A3040
     RMK A01=
KHWV 050256Z AUTO 33010KT 10SM -RA FEW021 BKN055 OVC080 08/06
     A2950 RMK AO2 RAB09 SLP990 P0001 60001 T00780056 55004
     TSNO=
KHYA 050256Z AUTO 34007KT 1SM BR VV002 07/06 A2942 RMK AO2 SLP964
     T00720061 58013=
KHYX 050256Z AUTO 27011G16KT 7SM -SN OVC060 M01/M04 A2999 RMK
     AO2=
KHZX 050255Z AUTO 16008KT 10SM CLR M03/M06 A2986 RMK AO2=
KIKT 050255Z AUTO VRB06G15KT 10SM CLR 17/05 A3034 RMK A01=
KIOB 050255Z AUTO 30010G15KT 260V320 10SM BKN028 OVC034 01/M02
     A3015 RMK AO2=
KVYS 050255Z AUTO 28007KT 10SM OVC011 M04/M06 A3017 RMK AO2
     T10381056=
KW22 050255Z AUTO 00000KT 10SM FEW003 BKN009 OVC014 14/14 A2990
     RMK AO2=
KW99 050255Z AUTO 00000KT 10SM -RA SCT030 SCT039 BKN046 04/01
     A2980 RMK AO2 T00440006=
KWBF 050300Z AUTO VRB05G12KT 10SM FEW028 FEW034 18/07 A3036 RMK
     A01=
KWDR 050255Z AUTO 31014G20KT 10SM CLR 03/M03 A3020 RMK AO2=
KWJF 050256Z 29007KT 10SM CLR 09/01 A3031 RMK AO2 SLP277 T00940006
     53011 $=
KXBP 050255Z AUTO 12003KT 10SM CLR 06/M01 A3030 RMK AO2
     T00621010=
KXIH 050255Z AUTO 22009KT 10SM CLR 16/08 A3038 RMK A01=
KXLL 050255Z AUTO 33006KT 10SM BKN026 BKN032 BKN075 04/01 A2966
     RMK AO2=
KXPY 050255Z AUTO 34006KT 10SM CLR 13/04 A3038 RMK A01=
KY31 050255Z AUTO 7SM -SN BKN019 BKN032 OVC041 M02/M02 A2994 RMK
     AO2 T10161020=
KZPH 050255Z AUTO 29010KT 10SM CLR 16/12 A3018 RMK A02
     T01640124=
PAAD 050255Z AUTO 24008KT 10SM OVC008 M37/M40 A3034 RMK AO2
     T13661400=
KMZG 050255Z AUTO 27006KT 1 1/2SM BR CLR A3039 RMK A01 VIS
     1/4V5=
KMZZ 050255Z AUTO 30012G18KT 10SM OVC022 00/M02 A3012 RMK AO2
     T10051022=
KOCQ 050255Z AUTO 24004KT 10SM CLR M04/M07 A3004 RMK AO1
     T10411075=
KOGA 050255Z AUTO 24009KT 10SM CLR 04/M02 A2997 RMK AO2
     T00441018=
KOGS 050255Z AUTO 31008KT 8SM SCT010 BKN014 OVC030 M01/M02 A2969
     RMK AO2=
KOKM 050255Z AUTO 17004KT 10SM CLR 04/M06 A3027 RMK AO2
     T00371058=
KONL 050255Z AUTO 22009KT 10SM CLR 05/00 A2981 RMK AO2
     T00480000=
KONM 050255Z AUTO 22006KT 10SM CLR 03/M06 A3037 RMK AO2
     T00341065=
KOPL 050255Z AUTO 00000KT 10SM CLR 06/04 A3038 RMK AO2
     T00600037=
KOPN 050255Z AUTO 32012G18KT 10SM CLR 05/M02 A3024 RMK AO2=
KOSC 050255Z AUTO 29007KT 10SM SCT027 OVC048 M01/M05 A2994 RMK AO2
     T10061048=
KOZW 050256Z AUTO 29009G14KT 10SM OVC022 M01/M05 A3000 RMK AO2
     T10151051=
KPBX 050255Z AUTO 29009G16KT 10SM BKN023 BKN029 OVC043 01/M02
     A3007 RMK AO2 T00101023=
KPCM 050255Z AUTO 30009KT 10SM CLR 17/14 A3019 RMK AO2=
KPEQ 050255Z AUTO 24008KT 10SM CLR 09/M05 A3029 RMK AO2
     T00861050=
KPLU 050255Z AUTO 00000KT 10SM SCT036 BKN047 OVC100 05/04 A3036
     RMK AO2=
