SAUS70 KWBC 050300 RRG
METAR
KM54 050255Z AUTO 27006G13KT 10SM OVC035 04/M01 A3026 RMK A01=
KM91 050255Z AUTO 31011KT 10SM OVC033 03/M02 A3025 RMK A01=
KMBT 050255Z AUTO 27007KT 10SM OVC037 04/M02 A3028 RMK A01=
KSME 050255Z AUTO 27009KT 10SM BKN020 BKN025 OVC036 01/M02 A3021
     RMK AO2=
KSNH 050255Z AUTO 00000KT 10SM CLR 00/M00 A3031 RMK A01=
KSNL 050255Z AUTO 17008KT 10SM CLR 05/M04 A3024 RMK AO2
     T00461045=
KSRE 050255Z AUTO 26006KT 10SM CLR 05/M06 A3025 RMK AO2=
KSYI 050255Z AUTO 26007KT 10SM OVC036 02/M01 A3029 RMK A01=
KSZY 050255Z AUTO 21003KT 10SM CLR M01/M02 A3030 RMK A01=
KTAZ 050255Z AUTO 19004KT 10SM CLR M03/M04 A3021 RMK AO2
     T10351045=
KTHA 050255Z AUTO 29006KT 10SM OVC033 02/M02 A3027 RMK A01=
KTVI 050255Z AUTO 31008KT 280V340 10SM CLR 10/00 A3024 RMK AO2=
KUCY 050255Z AUTO 18003KT 10SM CLR 01/M01 A3028 RMK A01=
KUSE 050255Z AUTO 32016KT 10SM -DZ OVC022 M00/M01 A3003 RMK
     AO2=
KVDI 050255Z AUTO 31014G23KT 10SM CLR 11/M04 A3012 RMK AO2=
KW43 050255Z AUTO 32015G25KT 10SM SCT060 OVC090 07/M05 A2993 RMK
     AO2=
KXNX 050255Z AUTO 26005KT 10SM OVC034 04/M00 A3030 RMK A01=
KY31 050256Z AUTO 7SM -SN SCT017 BKN022 OVC032 M02/M02 A2994 RMK
     AO2 T10161020=
K05U 050255Z AUTO 00000KT 10SM CLR M04/M05 A3039 RMK A01=
K06C 050255Z AUTO 26005KT 10SM SCT021 OVC027 M02/M05 A3012 RMK AO2
     T10211052=
K0A9 050255Z AUTO 25008G17KT 10SM SCT014 BKN019 OVC046 02/M01
     A3004 RMK AO2=
K0R0 050255Z AUTO 00000KT 10SM CLR 03/02 A3040 RMK AO2=
K0R4 050255Z AUTO 00000KT 10SM CLR 06/05 A3037 RMK AO2
     T00640047=
K1H2 050255Z AUTO 00000KT 10SM CLR M02/M08 A3025 RMK AO2
     T10221077=
K1M5 050255Z AUTO 32006G13KT 10SM OVC026 03/M01 A3025 RMK A01=
K2A0 050255Z AUTO 32007G16KT 300V360 10SM OVC035 04/M02 A3023 RMK
     A01=
K2G9 050255Z AUTO 30013G17KT 2 1/2SM -SN OVC008 00/M01 A2977 RMK
     AO2=
K2M2 050255Z AUTO 00000KT 10SM BKN033 M01/M02 A3028 RMK A01=
K33N 050255Z AUTO VRB06G15KT 10SM FEW031 SCT043 BKN070 08/06 A2962
     RMK A01=
K3AU 050255Z AUTO 17009KT 10SM CLR 01/M03 A3015 RMK AO2=
K3N8 050256Z AUTO 16008KT 10SM CLR M04/M07 A2971 RMK AO2
     T10421073=
K3S8 050255Z AUTO 00000KT 10SM BKN110 06/05 A3048 RMK AO2=
K46U 050255Z AUTO 26013G24KT 4SM HZ FEW049 BKN060 M01/M05 A3031
     RMK A01=
K5C1 050255Z AUTO 00000KT 10SM CLR 06/M01 A3037 RMK AO1=
K5T9 050255Z AUTO 12006KT 10SM CLR 12/M04 A3034 RMK A01=
K65S 050250Z AUTO 18005KT 10SM CLR 03/M07 A3024 RMK AO2 TSNO=
K6A1 050255Z AUTO 34008G20KT 10SM 07/M04 A3023 RMK AO2
     T00681043=
K6I2 050255Z AUTO 28004KT 10SM SCT018 BKN025 OVC032 02/02 A3019
     RMK AO2=
K6P9 050255Z AUTO 20004KT 10SM CLR 12/M03 A3028 RMK AO2
     T01151030=
K8A0 050255Z AUTO 34007KT 10SM OVC031 02/M03 A3028 RMK AO2=
KA08 050255Z AUTO 33007KT 10SM CLR 05/00 A3032 RMK AO2
     T00530000=
KA39 050255Z AUTO 09004KT 10SM SCT110 08/04 A3032 RMK AO2=
KAAA 050255Z AUTO 00000KT 10SM CLR M02/M03 A3019 RMK AO2
     T10241034=
KAVK 050255Z AUTO 17011KT 10SM CLR 02/M01 A3013 RMK AO2 PWINO
     TSNO=
KBGF 050255Z AUTO 28007KT 10SM OVC035 03/M02 A3028 RMK A01=
KBHC 050255Z AUTO 30017G22KT 10SM CLR 11/M01 A3013 RMK AO2=
KBIJ 050255Z AUTO 30004KT 10SM CLR 08/M01 A3026 RMK AO2=
KC75 050255Z AUTO 24006KT 10SM OVC011 M03/M05 A3017 RMK AO2
     T10311050=
KC83 050255Z AUTO 27004KT 10SM SCT029 08/07 A3041 RMK AO2=
KCBK 050255Z AUTO 22008KT 10SM CLR 01/M04 A2997 RMK AO2 PWINO=
KCKF 050255Z 10SM CLR 09/M04 A3022 RMK AO2 T00931039 PWINO=
KCOM 050255Z AUTO 20006KT 10SM CLR 10/M04 A3029 RMK AO2
     T01041045=
KCRX 050255Z AUTO 00000KT 10SM CLR 00/M01 A3032 RMK AO2=
