SAXX60 KWBC 050300 RRC
METAR
KWRI 050256Z AUTO 33011G16KT 10SM SCT020 BKN042 07/04 A2956 RMK
     AO2 RAB28E43 SLP010 P0002 60002 T00650043 53006=
PHBK 050256Z AUTO 27008KT 10SM CLR 27/21 A3014 RMK AO2 SLP208
     T02670206 53004 $=
PMDY 050256Z AUTO 20006KT 10SM CLR 23/21 A3013 RMK AO2 SLP201
     T02330211 53001=
KFAF 050256Z AUTO 34009G15KT 10SM -RA SCT022 OVC047 10/06 A2966
     RMK AO2 RAB24 SLP047 P0001 60003 T01030061 52042 $=
KFRI 050256Z AUTO 20005KT 10SM CLR 04/M04 A3008 RMK AO2 SLP195
     T00431039 58015=
KADW 050256Z AUTO 32012G23KT 10SM FEW045 08/03 A2967 RMK AO2 PK
     WND 31026/38 DZB08E22 SLP054 P0000 60002 T00820031 52019
     $=
KBAB 050258Z AUTO 09004KT 3SM BR CLR 07/06 A3037 RMK AO2 SLP288
     T00730064 56002 $=
KBLV 050256Z AUTO 18003KT 10SM CLR M02/M04 A3022 RMK AO2 SLP241
     T10231040 50000 $=
KDAA 050256Z AUTO 31016G24KT 10SM FEW049 SCT100 09/02 A2970 RMK
     AO2 SLP060 T00910017 52021 $=
KFTK 050256Z AUTO 27011KT 10SM OVC037 02/00 A3020 RMK AO2 UPB03E17
     SLP236 P0000 60000 T00191002 52018=
KGUS 050256Z AUTO 31013KT 10SM OVC022 00/M03 A3010 RMK AO2 SLP204
     T10051029 52016 $=
KHLR 050258Z AUTO 16003KT 10SM CLR 12/00 A3031 RMK AO2 SLP264
     T01231004 52005=
KHOP 050256Z AUTO 30005KT 10SM OVC038 03/M02 A3026 RMK AO2 SLP253
     T00331018 50013=
KHUA 050258Z AUTO 32004KT 10SM CLR 02/M04 A3030 RMK AO2 SLP266
     T00161036 52020=
KMIB 050256Z AUTO 26013KT 10SM CLR 04/M02 A2957 RMK AO2 SLP039
     T00441016 50007 $=
KMUI 050256Z AUTO 30004KT 10SM SCT026 OVC035 05/01 A2968 RMK AO2
     RAB06E15RAB39E54DZB54E55 SLP056 P0000 60000 T00480007
     52018=
KNBG 050255Z AUTO 00000KT 10SM CLR 08/06 A3036 RMK AO2 SLP281
     T00780056 51022 $=
KNCA 050256Z AUTO 29015G23KT 10SM BKN040 BKN048 OVC075 16/08 A2974
     RMK AO2 SLP074 T01610078 53018 $=
KNJK 050256Z AUTO 35004KT 7SM CLR 13/04 A3027 RMK AO2 SLP264
     T01330039 53003 $=
KDMA 050258Z AUTO 10003KT 10SM CLR 08/04 A3031 RMK AO2 SLP259
     T00820035 52014 FZRANO $=
KEDW 050258Z AUTO 00000KT 10SM CLR 08/02 A3027 RMK AO2 SLP260
     T00770022 53009=
KFHU 050258Z AUTO 12006KT 10SM CLR 17/M08 A3035 RMK AO2 SLP247=
KMUO 050258Z AUTO 34004KT 10SM CLR 00/M03 A3041 RMK AO2 SLP320
     T00001034 51016 $=
KSLI 050258Z AUTO 00000KT 10SM CLR 12/11 A3028 RMK AO2 SLP257
     T01170114 53004=
KNLC 050256Z AUTO 30008KT 7SM CLR 09/07 A3038 RMK AO2 SLP288
     T00940072 51015=
KGUS 050256Z AUTO 31013KT 10SM OVC022 00/M03 A3010 RMK AO2 SLP204
     T10051029 52016 $=
KMIB 050256Z AUTO 26013KT 10SM CLR 04/M02 A2957 RMK AO2 SLP039
     T00441016 50007 $=
KRCA 050256Z AUTO 27010KT 10SM OVC130 08/M04 A2982 RMK AO2 SLP115
     T00821040 52022 $=
KWRI 050256Z AUTO 33011G16KT 10SM SCT020 BKN042 07/04 A2956 RMK
     AO2 RAB28E43 SLP010 P0002 60002 T00650043 53006=
K9L2 050258Z AUTO 29005KT 10SM CLR 09/00 A3028 RMK AO2 SLP264
     T00851002 53012 $=
K1EW 050258Z AUTO 28020G25KT 10SM CLR 06/M06 A3007 RMK AO2 SLP207
     T00551059 51021 $=
K1CW 050258Z AUTO 31006KT 10SM CLR 06/M05 A3007 RMK AO2 SLP181
     T00571053 51020 $=
K9L2 050258Z AUTO 29005KT 10SM CLR 09/00 A3028 RMK AO2 SLP264
     T00851002 53012 $=
KBAB 050258Z AUTO 09004KT 3SM BR CLR 07/06 A3037 RMK AO2 SLP288
     T00730064 56002 $=
KDMA 050258Z AUTO 10003KT 10SM CLR 08/04 A3031 RMK AO2 SLP259
     T00820035 52014 FZRANO $=
KEDW 050258Z AUTO 00000KT 10SM CLR 08/02 A3027 RMK AO2 SLP260
     T00770022 53009=
KNBG 050255Z AUTO 00000KT 10SM CLR 08/06 A3036 RMK AO2 SLP281
     T00780056 51022 $=
KNJK 050256Z AUTO 35004KT 7SM CLR 13/04 A3027 RMK AO2 SLP264
     T01330039 53003 $=
