SACN62 CYQR 050300 
METAR CYQR 050300Z 30020G33KT 15SM OVC019 M01/M04 A2957 RMK SC8 PRESRR SLP045=
