SACN62 CYYQ 050300 
METAR CYYQ 050300Z 08006KT 15SM -SN OVC008 M17/M19 A3003 RMK SC8 SLP174=
