SPCN61 CYPO 050259 
SPECI CYPO 050259Z AUTO 32003KT 300V010 9SM SCT009 OVC016 M14/M16 A3000 RMK SLP167=
