SACN64 CWPX 050300
METAR CWPX 050300Z AUTO 34006KT ////SM //// NCD M33/M37 A3011=
