SANA14 KAWN 050300 RRA
METAR KGTB 050256Z 32005KT 9SM -UP OVC003 M01/M02 A2969 RMK AO2A FZDZE23FZDZB25E54UPB54
      SLP062 P0000 60000 T10111022 52003 $=
METAR KNFL 050256Z AUTO 36004KT 10SM CLR 01/M04 A3034 RMK AO2 SLP231
      T00111044 53007=
METAR KOZR 050256Z AUTO 31005KT 10SM CLR 09/00 A3027 RMK AO2 SLP253
      T00851005 52026=
METAR KPAM 050256Z AUTO M M M M M M RMK AO2 DZB18E27DZB28E33DZB34E37
      SLPNO RVRNO PNO FZRANO VISNO RWY32 CHINO RWY32 $=
METAR KPOB 050256Z AUTO 30015G23KT 10SM SCT075 BKN100 10/M02 A2986
      RMK AO2 PK WND 32031/40 SLP114 60000 T01001017 52048 $=
METAR KPOE 050258Z AUTO 00000KT 10SM CLR 06/04 A3036 RMK AO2 SLP284
      T00610043 52012=
METAR KRCA 050256Z AUTO 27010KT 10SM OVC130 08/M04 A2982 RMK AO2 SLP115
      T00821040 52022 $=
METAR KRDR 050256Z AUTO 20014KT 10SM BKN130 M06/M08 A2966 RMK AO2 SLP066
      T10581079 57021=
METAR KSGH 050256Z AUTO 28015G21KT 10SM BKN016 BKN024 OVC030 01/M01
      A3005 RMK AO2 SLP188 60000 T00061011 53019=
METAR KSZL 050256Z 19007KT 10SM CLR M01/M05 A3012 RMK AO2A SLP211 T10091053
      58016 $=
METAR KVAD 050256Z AUTO 30018G25KT 10SM CLR 12/M02 A3018 RMK AO2 SLP222
      T01181021 52041 $=
METAR KVOK 050256Z AUTO 17004KT 10SM M M08/M08 A3005 RMK AO2 SLP195
      T10821083 58002 $=
METAR KVPS 050256Z 31007KT 10SM CLR 08/01 A3029 RMK SLP264 T00760012
      52025 $=
METAR KWRB 050256Z 31023G28KT 10SM CLR 08/M03 A3018 RMK AO2A PK WND
      31029/22 SLP222 T00791030 52045=
METAR KWRI 050256Z AUTO 33011G16KT 10SM SCT020 BKN042 07/04 A2956 RMK
      AO2 RAB28E43 SLP010 P0002 60002 T00650043 53006=
