SAIY32 LIIB 050250
METAR LIBD 050250Z 30010KT 9999 FEW030 09/06 Q1018=
METAR LIBR 050250Z 30016KT 9999 SCT040 11/09 Q1016=
METAR LICC 050250Z 25008KT CAVOK 04/02 Q1019=
METAR LICJ 050250Z 31010KT 9999 FEW025 SCT050 14/09 Q1021=
METAR LIPE 050250Z 22005KT CAVOK 03/01 Q1024=
METAR LIPH 050250Z AUTO VRB02KT 9999 NCD 01/M01 Q1024=
METAR LIPQ 050250Z AUTO 10005KT 060V120 9999 NCD 04/M04 Q1024=
METAR LIPR 050250Z AUTO VRB02KT 9999 NCD 01/M00 Q1024=
METAR LIPX 050250Z 27005KT CAVOK M00/M01 Q1024=
METAR LIPZ 050250Z 32003KT 290V350 7000 NSC 02/00 Q1024 NOSIG=
