SACN62 CYSM 050300 
METAR CYSM 050300Z 26007KT 6SM -SN FEW021 SCT046 OVC061 M13/M15 A2958 RMK SC1SC3SC4 SLP039=
