SACN65 CYIV 050300 
LWIS CYIV 050300Z AUTO 11011KT M16/M18 A2983=
