SACN62 CYVV 050300 
METAR CYVV 050300Z 34004KT 310V010 15SM -SN OVC035 M02/M05 A2984 RMK SC8 SLP117=
