SACN62 CYQY 050300 
METAR CYQY 050300Z 15003KT 6SM BR OVC007 M01/M01 A2963 RMK ST8 SLP037=
