SPCN49 CWAO 050259
SPECI CYCX 050259Z AUTO 03003KT 5/8SM -SN VV004 M01/M01 A2959=
