SACN62 CYQU 050300 
METAR CYQU 050300Z VRB02KT 25SM SCT160 M15/M16 A2981 RMK AC3 SLP146=
