SABZ24 SBCT 050300
METAR SBCT 050300Z VRB01KT 9999 FEW007 15/15 Q1014=
