SAID33 WIII 050230
METAR WAPP 050230Z 04010KT 360V070 9999 FEW018 33/25 Q1008 NOSIG=
