SAID32 WIII 050230
METAR WADL 050230Z 31009KT 8000 FEW015CB BKN015 29/26 Q1008 NOSIG RMK
 CB TO E=
