SACN65 CZEM 050300 
LWIS CZEM 050300Z AUTO 33005KT M11/M13 A2992=
