SACN62 CYZF 050300 
METAR CYZF 050300Z 34011KT 1 1/2SM -SN BR DRSN VV008 M17/M19 A2969 RMK SN8 SLP079=
