SACN62 CYVO 050300 
METAR CYVO 050300Z 33005KT 7SM -SN OVC014 M10/M12 A2977 RMK SC8 LAST STFD OBS/NEXT 051100UTC SLP111=
