SACN62 CYOJ 050300 
METAR CYOJ 050300Z 20005KT 170V250 15SM FEW220 M22/M25 A2986 RMK CS2 SLP151=
