SACN62 CYCO 050300 
METAR CYCO 050300Z 36011KT 8SM -SN FEW042 BKN065 OVC082 M28/M32 A3019 RMK SC2SC4AC2 SLP229=
