SPCN61 CYBU 050259 
SPECI CYBU 050259Z AUTO 31010G15KT 1SM -SN VV012 M06/M06 A2950 RMK SLP017=
