SACN62 CYXY 050300 
METAR CYXY 050300Z 34002KT 10SM -SN FEW030 OVC058 M19/M21 A2954 RMK SC2SC6 SLP075=
