SACN62 CYYJ 050300 
METAR CYYJ 050300Z 19004KT 120V200 20SM FEW018 BKN032 BKN054 06/05 A3026 RMK SC1SC5SC1 SLP250=
