SANA14 KAWN 050300 RRB
METAR KNGP 050256Z AUTO 15006KT 10SM CLR 12/09 A3038 RMK AO2 SLP288
      T01170094 51010=
METAR KNLC 050256Z AUTO 30008KT 7SM CLR 09/07 A3038 RMK AO2 SLP288
      T00940072 51015=
METAR KNXP 050256Z AUTO 26009KT 10SM CLR 09/02 A3037 RMK AO2 SLP274
      T00940022 53014=
METAR KNYG 050256Z AUTO 33013KT 10SM -RA BR OVC100 09/03 A2972 RMK
      AO2 SLP064 P0000 60000 T00940028 53023=
METAR KOFF 050256Z 16009KT 10SM FEW240 03/M05 A2999 RMK AO2A SLP173
      RVRNO $=
METAR KOSC 050255Z AUTO 29007KT 10SM SCT027 OVC048 M01/M05 A2994 RMK
      AO2 T10061048=
METAR KPSM 050256Z 36007KT 2SM -DZ BR OVC004 02/01 A2950 RMK AO2A SLP993
      P0000 60001 T00180014 57011=
METAR KRIV 050258Z AUTO 30005KT 10SM CLR 10/07 A3028 RMK AO2 SLP260
      T01000074 53004=
METAR KSLI 050258Z AUTO 00000KT 10SM CLR 12/11 A3028 RMK AO2 SLP257
      T01170114 53004=
METAR KSUU 050258Z AUTO 05003KT 5SM HZ CLR 07/04 A3040 RMK AO2 SLP302
      T00710039 51005 $=
METAR KTCM 050258Z AUTO 18005KT 10SM SCT031 BKN040 OVC060 05/05 A3036
      RMK AO2 RAB0159E17 SLP287 P0000 60000 T00500050 53003 $=
METAR KVBG 050258Z AUTO 36007KT 6SM BR BKN004 11/11 A3034 RMK AO2 SLP278
      T01130107 50008 $=
METAR PHSF 050258Z AUTO 28016G23KT 9SM FEW047 M A3039 RMK AO2 PK WND
      30027/32 SLPNO 53000 FZRANO $=
METAR SBBR 050300Z 14005KT 1500 R11L/P2000 R29R/P2000 R11R////// R29L/P2000
      -RA BR SCT003 BKN010 BKN100 20/19 Q1015 REDZ=
METAR SKSP 050300Z 04016KT 9999 DZ SCT016 28/24 A3005=
METAR SPJC 050300Z 16012KT 9999 OVC007 22/20 Q1016 NOSIG RMK PP000=
