SACS31 MROC 050300
METAR MROC 050300Z 09009KT 060V130 CAVOK 21/16 A3013 NOSIG=
