SACN62 CYWG 050300 
METAR CYWG 050300Z 16012G18KT 15SM OVC140 M05/M08 A2963 RMK AC8 SLP050=
