SACN62 CYAM 050300 
METAR CYAM 050300Z 02002KT 12SM -SHSN FEW012 BKN018 OVC029 M03/M05 A2991 RMK CU1CU6CU1 SLP140=
