SACN62 CYYG 050300 
METAR CYYG 050300Z VRB02KT 15SM OVC039 M01/M03 A2962 RMK SC8 SLP032=
