SACN65 CWGZ 050300 
LWIS CWGZ 050300Z AUTO 06004KT M38/M44 A2964=
