SAUS70 KWBC 050300 RRA
METAR
KWVL 050256Z AUTO 02003KT 9SM UP FEW004 SCT014 BKN034 01/00 A2954
     RMK AO2 RAE10UPB10E11B35SNB11E35 SLP034 P0000 60000 T00060000
     58014 FZRANO=
KWWD 050256Z AUTO 30010G18KT 10SM -RA FEW022 BKN042 OVC065 08/07
     A2958 RMK AO2 SLP020 P0003 60011 T00780067 51008=
KY50 050256Z AUTO 00000KT 10SM CLR M09/M10 A3006 RMK AO2 SLP193
     T10941100 58003 FZRANO $=
KYKN 050256Z AUTO 17006KT 10SM CLR 03/M01 A2981 RMK AO2 SLP122
     T00331006 58027=
KBPG 050255Z AUTO 18008KT 10SM CLR 07/M06 A3027 RMK AO2
     T00701055=
KBQX 050255Z AUTO 21009KT 10SM CLR 18/07 A3039 RMK A01=
KBVS 050255Z AUTO 14009KT 10SM OVC023 07/03 A3031 RMK A01=
KC09 050255Z AUTO 28008KT 10SM OVC014 M03/M04 A3015 RMK AO2
     T10261043=
KC65 050255Z AUTO 30009G15KT 10SM OVC025 M01/M05 A3010 RMK A01=
KCCO 050255Z AUTO 33011G15KT 10SM CLR 05/M02 A3024 RMK AO2
     T00501022=
KCDI 050257Z AUTO 27007KT 10SM BKN017 BKN025 OVC033 00/M01 A2998
     RMK AO2 T00031008=
KCEC 050256Z AUTO 10004KT 10SM CLR 08/07 A3050 RMK AO2 SLP328
     T00780067 55003=
KCEY 050255Z AUTO 00000KT 10SM CLR 00/00 A3027 RMK AO1=
KCFD 050255Z AUTO 15003KT 10SM CLR 12/03 A3035 RMK AO2
     T01200030=
KCFS 050255Z AUTO 28011G15KT 3SM -SN SCT013 BKN020 OVC055 M01/M03
     A2997 RMK AO2 T10061031=
KCHK 050255Z AUTO 13004KT 10SM CLR 05/M02 A3019 RMK AO2
     T00461021=
KCKZ 050255Z AUTO 33007G15KT 10SM SCT041 OVC075 04/02 A2961 RMK
     AO2=
KCQF 050255Z AUTO 00000KT 10SM CLR 09/01 A3033 RMK AO2=
KCTB 050256Z AUTO 27021G26KT 10SM CLR M02/M08 A3003 RMK AO2 PK WND
     27031/0229 SLP189 T10221083 51051=
KCTJ 050255Z AUTO 32011G16KT 10SM CLR 02/M05 A3028 RMK AO2
     T00171046=
KCXY 050256Z AUTO 32011KT 10SM FEW036 BKN047 OVC060 08/00 A2969
     RMK AO2 SLP057 60000 T00830000 53017=
KD73 050255Z AUTO 32016G21KT 10SM CLR 04/M03 A3019 RMK AO2
     T00381030=
KDAY 050256Z 28012G21KT 9SM FEW014 OVC033 01/M02 A3008 RMK AO2
     SLP194 T00111022 53023=
KDED 050255Z AUTO 28008KT 10SM CLR 16/12 A3012 RMK AO2=
KDIK 050256Z AUTO 29015KT 10SM FEW065 OVC095 04/M02 A2974 RMK AO2
     SLP089 T00441017 53024=
KDLP 050255Z AUTO 36021KT 10SM CLR 15/03 A3034 RMK A01=
KDSF 050255Z AUTO 34008G17KT 310V020 10SM FEW043 FEW049 18/05
     A3032 RMK A01=
KDTL 050255Z AUTO 16010KT 10SM CLR M05/M06 A2975 RMK AO2=
KDUG 050256Z AUTO 08003KT 10SM CLR 03/M02 A3036 RMK AO2 SLP286
     T00331022 53013=
KDVO 050255Z AUTO 00000KT 10SM CLR 09/08 A3041 RMK AO2=
KE38 050255Z AUTO 22013G17KT 10SM CLR 08/M09 A3042 RMK AO2
     T00841086=
KEBS 050255Z AUTO 16014KT 10SM CLR M04/M05 A2998 RMK AO2=
KEDC 050255Z AUTO 19004KT 10SM CLR 12/00 A3034 RMK AO2=
KEED 050256Z AUTO 32009KT 10SM CLR 13/02 A3031 RMK AO2 SLP257
     T01280022 53012=
KEIR 050255Z AUTO 33009KT 10SM CLR 16/08 A3040 RMK A01=
KEKO 050256Z AUTO 00000KT 10SM CLR M01/M04 A3038 RMK AO2 SLP318
     T10061044 53013=
KELZ 050256Z AUTO 32013G20KT 4SM -FZRA BR OVC010 M03/M03 A2972 RMK
     AO2 UPB16E44FZRAB44 CIG 006V012 SLP087 P0000 60000 I1001
     I3001 T10281033 51011=
KEMK 050255Z AUTO 34005KT 10SM BKN018 17/04 A3040 RMK A01=
KF70 050255Z AUTO 10003KT 10SM CLR 13/04 A3029 RMK AO1=
KFOA 050255Z AUTO 26003KT 10SM CLR M01/M03 A3025 RMK AO2 TSNO=
KFSE 050257Z AUTO 16011KT 10SM CLR M04/M08 A2970 RMK AO2=
KFVX 050255Z AUTO 29006KT 10SM SCT060 OVC110 09/01 A2973 RMK AO2
     T00880008=
KFWC 050255Z AUTO 00000KT 10SM CLR 00/M02 A3025 RMK AO1
     T00001022=
KFWS 050255Z AUTO 14003KT 10SM CLR 07/00 A3031 RMK AO2
     T00651001=
KGHB 050255Z AUTO 02013KT 10SM CLR 17/06 A3040 RMK A01=
