SAUS70 KWBC 050300 RRF
METAR
KOEO 050255Z AUTO 16008KT 10SM SCT095 M04/M06 A2998 RMK AO2
     T10401056=
KOLY 050255Z AUTO 28004KT 10SM CLR M01/M03 A3026 RMK AO2
     T10061030=
KONX 050255Z AUTO 28010G14KT 240V300 10SM BKN018 OVC023 13/11
     A2964 RMK AO2 T01250110=
KOWI 050255Z AUTO 19008KT 10SM CLR 02/M05 A3014 RMK AO2=
KP08 050255Z AUTO RMK AO2 PNO PWINO TSNO=
KPCW 050255Z AUTO 31014KT 10SM FEW025 OVC034 01/M03 A2999 RMK
     AO2=
KPHT 050255Z AUTO 00000KT 10SM CLR 00/M02 A3028 RMK A01=
KPPO 050255Z AUTO 30006KT 10SM SCT026 OVC110 M01/M06 A3012 RMK AO2
     T10111061=
KPTD 050255Z AUTO 30006KT 2 1/2SM -SN OVC005 M01/M01 A2969 RMK
     AO2=
KPVE 050255Z AUTO 00000KT 10SM CLR 00/M02 A3029 RMK A01=
KRBO 050255Z AUTO 16006KT 10SM CLR 11/07 A3039 RMK AO2
     T01100065=
KREG 050255Z AUTO 00000KT 10SM CLR 09/07 A3037 RMK AO2
     T00880065=
KRKW 050255Z AUTO 32008G14KT 260V360 10SM BKN021 BKN027 OVC032
     01/M02 A3017 RMK A01=
KRNC 050255Z AUTO 28004KT 10SM OVC035 02/M02 A3026 RMK A01=
KRNH 050255Z AUTO 17009KT 10SM SCT085 M04/M07 A2996 RMK AO2
     T10431067=
KROG 050258Z AUTO 21005KT 10SM CLR 03/M10 A3027 RMK AO2 SLP257
     T00281100 56002=
KRTS 050255Z AUTO 35005KT 10SM CLR M00/M04 A3036 RMK AO2=
KRUQ 050255Z AUTO 29007KT 10SM CLR 05/M03 A2995 RMK AO2
     T00471031=
KRZR 050255Z AUTO 31004G12KT 10SM OVC037 04/M03 A3023 RMK A01=
KSCX 050255Z AUTO 30007KT 10SM FEW019 SCT027 OVC035 01/M02 A3017
     RMK A01=
KGCY 050255Z AUTO 28010KT 240V300 10SM BKN023 OVC028 02/M02 A3008
     RMK A01=
KGGP 050255Z AUTO 30006G14KT 10SM OVC022 00/M04 A3014 RMK AO2=
KGKT 050255Z AUTO 26008KT 10SM SCT025 SCT031 OVC047 03/M01 A3016
     RMK A01=
KGOO 050255Z AUTO 00000KT 10SM CLR 07/06 A3035 RMK A01=
KGWB 050255Z AUTO 30013G17KT 10SM OVC018 00/M03 A3007 RMK AO2=
KGZN 050240Z AUTO 20005KT 10SM CLR 11/M03 A3027 RMK AO2=
KGZS 050255Z AUTO 00000KT 10SM BKN031 OVC036 M00/M02 A3030 RMK
     A01=
KH71 050255Z AUTO 16005KT 10SM CLR 02/M07 A3026 RMK AO2=
KHAF 050255Z AUTO 35005KT 10SM CLR 10/08 A3041 RMK AO2=
KHFF 050256Z AUTO 33014G24KT 10SM SCT085 09/M02 A2990 RMK AO2
     SLP141 T00851022 52053 $=
KHHG 050255Z AUTO 29008G15KT 10SM OVC021 00/M05 A3009 RMK AO2
     T10021051=
KHNZ 050255Z AUTO 29009G19KT 270V330 10SM SCT095 07/M02 A2980 RMK
     AO2 T00701019=
KHOE 050255Z 30013G19KT CLR 11/00 A3017 RMK AO2=
KHSD 050255Z AUTO 18009KT 10SM CLR 07/M03 A3020 RMK A01=
KHTO 050255Z AUTO 33008KT 300V360 10SM -RA BKN009 OVC014 07/06
     A2947 RMK AO2 T00650060=
KHZD 050255Z AUTO 00000KT 10SM CLR 00/M01 A3028 RMK A01=
KHZX 050256Z AUTO 16007KT 10SM CLR M03/M06 A2987 RMK AO2=
KIFP 050255Z AUTO 03010KT 10SM CLR 14/01 A3031 RMK AO2=
KIJX 050255Z AUTO 15003KT 10SM CLR M04/M05 A3019 RMK AO2
     T10381047=
KJAQ 050255Z AUTO 33004KT 1SM BKN001 09/09 A3037 RMK AO1 VIS 1/2V5
     T00850085=
KJAU 050255Z AUTO VRB05G10KT 10SM BKN026 OVC031 03/M01 A3020 RMK
     A01=
KJCA 050255Z AUTO 31018G26KT 10SM SCT042 04/M04 A3016 RMK AO2
     T00401042=
KJTC 050255Z AUTO 20005KT 10SM CLR 00/M06 A3043 RMK AO2=
KJWN 050255Z AUTO 27007KT 10SM OVC038 04/M01 A3027 RMK A01=
KLBO 050315Z AUTO 21005KT 10SM CLR 00/M06 A3022 RMK AO2=
KLCQ 050255Z AUTO 30018G25KT 10SM CLR 13/00 A3018 RMK AO2=
KLNN 050255Z AUTO 32010G19KT 10SM BKN024 OVC031 00/M05 A2995 RMK
     AO1 T00001054=
KLUG 050255Z AUTO 25004KT 10SM OVC037 02/M02 A3030 RMK A01=
KM02 050255Z AUTO VRB03KT 10SM OVC034 03/M02 A3026 RMK A01=
KM04 050255Z AUTO 23004KT 10SM CLR 01/M01 A3030 RMK A01=
KM08 050255Z AUTO 00000KT 10SM CLR M01/M02 A3030 RMK A01=
KM30 050255Z AUTO 00000KT 10SM CLR 00/M02 A3029 RMK AO2
     T10021020=
