SAUS70 KWBC 050300 RRI
METAR
K1MW 050258Z AUTO 32022KT 10SM CLR 07/M06 A3004 RMK AO2 PK WND
     32026/52 SLP192 T00731059 52025 $=
K3N8 050255Z AUTO 16008KT 10SM CLR M04/M07 A2971 RMK AO2
     T10431073=
KBBD 050255Z AUTO 21005KT 10SM CLR 11/M05 A3031 RMK AO2=
KBMT 050255Z AUTO 00000KT 10SM CLR 10/07 A3037 RMK AO2 T01030071
     TSNO=
KLAS 050256Z 23006KT 10SM BKN250 10/00 A3035 RMK AO2 SLP280
     T01000000 50005=
KTEX 050255Z AUTO 14003KT 10SM CLR 00/M11 A3045 RMK AO2=
KWJF 050256Z 29007KT 10SM CLR 09/01 A3031 RMK AO2 SLP277 T00940006
     53011 $=
KBQX 050255Z AUTO 21009KT 10SM CLR 18/07 A3039 RMK A01=
KCFD 050255Z AUTO 15003KT 10SM CLR 12/03 A3035 RMK AO2
     T01200030=
KDUG 050256Z AUTO 08003KT 10SM CLR 03/M02 A3036 RMK AO2 SLP286
     T00331022 53013=
KE38 050255Z AUTO 22013G17KT 10SM CLR 08/M09 A3042 RMK AO2
     T00841086=
KEED 050256Z AUTO 32009KT 10SM CLR 13/02 A3031 RMK AO2 SLP257
     T01280022 53012=
KEMK 050255Z AUTO 34005KT 10SM BKN018 17/04 A3040 RMK A01=
KHQI 050255Z AUTO 33006KT 10SM FEW033 SCT043 BKN049 17/03 A3040
     RMK A01=
KPPA 050255Z AUTO 17013KT 10SM CLR 07/M02 A3013 RMK AO2
     T00711016=
KRYN 050245Z 21006KT 10SM CLR 09/02 A3033 RMK LAST=
KTMK 050255Z AUTO 15004KT 10SM SCT024 SCT031 SCT047 A3040 RMK
     AO2=
KTXW 050255Z AUTO 15003KT 10SM CLR 13/03 A3040 RMK AO2
     T01250025=
KXBP 050255Z AUTO 12003KT 10SM CLR 06/M01 A3030 RMK AO2
     T00621010=
K04W 050255Z AUTO 00000KT 10SM CLR M03/M05 A2991 RMK AO2=
KAUH 050255Z AUTO 21012KT 10SM CLR 04/01 A2993 RMK AO2
     T00370009=
KBJJ 050256Z AUTO 32009KT 10SM FEW014 OVC029 M01/M03 A2996 RMK AO2
     UPB02E14FZRAB14E16 SLP156 P0000 60002 I1001 I3001 T10111028
     50013=
KCDI 050257Z AUTO 27007KT 10SM BKN017 BKN025 OVC033 00/M01 A2998
     RMK AO2 T00031008=
KCFS 050255Z AUTO 28011G15KT 3SM -SN SCT013 BKN020 OVC055 M01/M03
     A2997 RMK AO2 T10061031=
KCKZ 050255Z AUTO 33007G15KT 10SM SCT041 OVC075 04/02 A2961 RMK
     AO2=
KDSF 050255Z AUTO 34008G17KT 310V020 10SM FEW043 FEW049 18/05
     A3032 RMK A01=
KHYA 050256Z AUTO 34007KT 1SM BR VV002 07/06 A2942 RMK AO2 SLP964
     T00720061 58013=
KISP 050256Z 35013KT 8SM -RA FEW008 SCT014 OVC020 07/05 A2951 RMK
     AO2 SLP992 P0001 60001 T00670050 56006=
KJVY 050255Z AUTO 29007KT 7SM UP BKN021 BKN026 OVC040 02/00 A3020
     RMK AO2 T00200000=
KLCG 050255Z AUTO 21009KT 10SM CLR 03/00 A2987 RMK AO2
     T00281005=
KLWA 050256Z AUTO 32007KT 10SM OVC024 M01/M06 A3008 RMK AO2
     T10061059=
KLWB 050255Z AUTO 32005KT 4SM -SN SCT019 BKN032 OVC100 00/M01
     A2989 RMK AO2 T00001015=
KMDT 050256Z 34008KT 10SM BKN040 BKN049 OVC065 07/02 A2968 RMK AO2
     RAB0158E44 SLP053 P0000 60001 T00670022 53014 $=
KMRJ 050255Z AUTO 23008KT 10SM OVC007 M03/M05 A3009 RMK AO2=
KROX 050257Z AUTO 13009KT 10SM CLR M03/M06 A2970 RMK AO2=
KSGS 050256Z AUTO 16007KT 10SM CLR M03/M06 A2996 RMK AO2
     T10321058=
KVAF 050255Z AUTO 00000KT 10SM CLR 18/04 A3041 RMK A01=
KC65 050255Z AUTO 30009G15KT 10SM OVC025 M01/M05 A3010 RMK A01=
KDIK 050256Z AUTO 29015KT 10SM FEW065 OVC095 04/M02 A2974 RMK AO2
     SLP089 T00441017 53024=
KELZ 050256Z AUTO 32013G20KT 4SM -FZRA BR OVC010 M03/M03 A2972 RMK
     AO2 UPB16E44FZRAB44 CIG 006V012 SLP087 P0000 60000 I1001
     I3001 T10281033 51011=
KFSE 050257Z AUTO 16011KT 10SM CLR M04/M08 A2970 RMK AO2=
KHJH 050255Z AUTO 20012G17KT 10SM CLR 05/00 A2998 RMK AO2
     T00461005=
KHYX 050256Z AUTO 27011G16KT 7SM -SN OVC060 M01/M04 A2999 RMK
     AO2=
KHZX 050255Z AUTO 16008KT 10SM CLR M03/M06 A2986 RMK AO2=
KMZZ 050255Z AUTO 30012G18KT 10SM OVC022 00/M02 A3012 RMK AO2
     T10051022=
