SAUS22 KWBC 050300 RRN
METAR KDIK 050256Z AUTO 29015KT 10SM FEW065 OVC095 04/M02 A2974
     RMK AO2 SLP089 T00441017 53024=
METAR KFSD 050256Z 18013KT 10SM SCT170 SCT210 BKN250 02/M02 A2980
     RMK AO2 SLP110 T00221022 58028 $=
METAR KOFK 050256Z AUTO 20014KT 10SM CLR 03/M01 A2986 RMK AO2
     SLP130 T00331006 58021 $=
METAR KSDF 050256Z 28010KT 10SM FEW022 SCT027 BKN045 03/M01 A3019
     RMK AO2 SNB12E33 SLP228 P0000 60000 T00331011 51019 $=
METAR KJMS 050256Z AUTO 19007KT 10SM CLR M07/M08 A2964 RMK AO2
     SLP062 T10671083 56008=
METAR KJXN 050256Z AUTO 30009G16KT 10SM OVC022 M01/M07 A3002 RMK
     AO2 SLP175 T10111067 51022=
METAR KSJS 050255Z AUTO 29003KT 10SM BKN025 OVC050 02/M02 A3008
     RMK AO2 T00201017=
METAR KTEX 050255Z AUTO 14003KT 10SM CLR 00/M11 A3045 RMK AO2=
METAR KRNH 050255Z AUTO 17009KT 10SM SCT085 M04/M07 A2996 RMK AO2
     T10431067=
METAR KSME 050255Z AUTO 27009KT 10SM BKN020 BKN025 OVC036 01/M02
     A3021 RMK AO2=
METAR KEAU 050256Z AUTO 18006KT 9SM OVC013 M03/M06 A3000 RMK AO2
     SLP171 T10281061 58007=
