SAUS80 KWBC 050300 RRA
METAR
KDBN 050255Z AUTO 32012G23KT 10SM CLR 08/M03 A3018 RMK AO2=
KEDU 050255Z AUTO 00000KT 5SM CLR A3039 RMK AO1=
KFLG 050257Z AUTO 25003KT 10SM CLR M01/M07 A3041 RMK AO2 SLP320
     T10111067 53005=
KFSD 050256Z 18013KT 10SM SCT170 SCT210 BKN250 02/M02 A2980 RMK
     AO2 SLP110 T00221022 58028 $=
KOFK 050256Z AUTO 20014KT 10SM CLR 03/M01 A2986 RMK AO2 SLP130
     T00331006 58021 $=
KSOA 050255Z AUTO 00000KT CLR 04/M04 A3038 RMK AO2=
KALK 050256Z AUTO 17005KT 10SM CLR 10/M06 A3039 RMK AO2 SLP249
     T01001056 53014=
KINW 050256Z AUTO 00000KT 10SM CLR 02/M02 A3038 RMK AO2 SLP307
     T00171017 53006=
KJDN 050248Z AUTO 28021G32KT 04/M08 A2989 RMK AO1 PK WND
     30042/0210 SLP140 T00441083 51045=
KO54 050255Z AUTO 03004KT 10SM BKN120 03/01 A3041 RMK AO1=
KSPD 050256Z AUTO 22005KT 01/M06 A3002 RMK AO1 SLP172 T00111061
     58007=
K12N 050254Z AUTO VRB06KT 04/00 A2960 RMK AO1 SLP028 T00440000
     53007=
KD07 050256Z AUTO 27011KT 05/M02 A2976 RMK AO1 SLP103 T00501017
     53011=
KGNA 050256Z AUTO 28004KT M01/M06 A2993 RMK AO1 SLP149 T10111056
     58005=
KMQE 050251Z AUTO 35007KT 03/03 A2945 RMK AO1 SLP986 T00330033
     58014=
KMTP 050254Z AUTO 30005KT A2947 RMK AO1 SLP981 58013 $=
KLWS 050256Z 19009KT 10SM CLR 04/M05 A3040 RMK AO2 SLP302
     T00441050 53018=
KRFI 050255Z AUTO 00000KT 10SM CLR 03/02 A3035 RMK AO2
     T00340023=
KCLI 050255Z AUTO 24004KT 10SM CLR M05/M08 A3006 RMK AO2
     T10501078=
KSFY 050255Z AUTO 00000KT 10SM OVC008 M04/M05 A3016 RMK AO2=
TJSJ 050256Z 00000KT 10SM FEW028 FEW070 26/21 A3008 RMK AO2 SLP184
     60001 T02560211 50004 $=
KSFO 050256Z 27008KT 10SM SCT180 12/08 A3040 RMK AO2 SLP293
     T01170078 51002=
KBIH 050256Z AUTO 06003KT 10SM CLR 04/M04 A3030 RMK AO2 SLP271
     T00391044 51011=
KBZN 050256Z 23012G20KT 10SM CLR M03/M09 A3023 RMK AO2 SLP289
     T10281089 51055 $=
KNAK 050254Z AUTO 31013G20KT 10SM BKN065 OVC080 09/05 A2966 RMK
     AO2 RAE04 SLP045 P0000 60004 T00890050 53014=
