SAUS70 KWBC 050300 RRD
METAR
KSJS 050255Z AUTO 29003KT 10SM BKN025 OVC050 02/M02 A3008 RMK AO2
     T00201017=
KSLE 050256Z 18008KT 10SM -RA SCT044 BKN060 OVC075 07/04 A3042 RMK
     AO2 SLP302 P0001 60002 T00670044 58004 $=
KSRR 050255Z AUTO 01006KT 10SM CLR 03/M08 A3038 RMK AO2=
KSTE 050255Z AUTO 00000KT 10SM SCT015 M05/M07 A3003 RMK AO2
     T10551070=
KSWW 050255Z AUTO 19010KT 10SM CLR 11/M06 A3027 RMK AO2
     T01111058=
KT20 050255Z AUTO 15003KT 10SM CLR 14/M01 A3035 RMK AO2
     T01421013=
KT35 050255Z AUTO 19007KT 10SM CLR 12/02 A3032 RMK AO2
     T01160016=
KTEX 050255Z AUTO 14003KT 10SM CLR 00/M11 A3045 RMK AO2=
KTFP 050255Z AUTO 18006KT 10SM CLR 11/09 A3038 RMK AO2 T01120094
     PNO=
KTIP 050255Z AUTO 30007KT 10SM OVC018 M02/M04 A3019 RMK AO2
     T10161036=
KTMK 050255Z AUTO 15004KT 10SM SCT024 SCT031 SCT047 A3040 RMK
     AO2=
KTOC 050255Z AUTO 29015G22KT 10SM SCT044 BKN050 05/M04 A3012 RMK
     AO2 T00501042=
KTPH 050256Z AUTO 01006KT 10SM CLR 01/M03 A3037 RMK AO2 SLP302
     T00061033 53010=
KTQH 050255Z AUTO 00000KT 10SM CLR M02/M05 A3029 RMK AO2=
KTRK 050255Z AUTO 12003KT 10SM CLR M01/M05 A3037 RMK AO2=
KTXW 050255Z AUTO 15003KT 10SM CLR 13/03 A3040 RMK AO2
     T01250025=
KUBE 050255Z AUTO 16008KT 10SM BKN065 OVC085 M05/M06 A2995 RMK
     AO2=
KUKI 050256Z AUTO 00000KT 10SM CLR 07/04 A3044 RMK AO2 SLP307
     T00670039 53008=
KUXL 050255Z AUTO 00000KT 10SM CLR 09/05 A3039 RMK AO2
     T00880052=
KUYF 050255Z AUTO 30014G19KT 10SM BKN015 OVC021 00/00 A3003 RMK
     AO2=
KVAF 050255Z AUTO 00000KT 10SM CLR 18/04 A3041 RMK A01=
KVKY 050255Z AUTO 35015G21KT 10SM FEW028 SCT033 SCT041 16/02 A3035
     RMK A01=
KVOA 050300Z AUTO 36010G18KT 10SM CLR 16/01 A3032 RMK A01=
KVPZ 050256Z AUTO 30006KT 10SM OVC029 M01/M07 A3013 RMK AO2 SLP211
     T10111067 51019=
KVQT 050255Z AUTO 01008KT 10SM CLR 16/06 A3040 RMK A01=
KVWU 050254Z AUTO 15008G14KT 10SM M04/M06 A2975 RMK AO2=
K04W 050255Z AUTO 00000KT 10SM CLR M03/M05 A2991 RMK AO2=
K1A6 050255Z AUTO 29006G09KT 5SM DZ OVC025 02/00 A3015 RMK AO2
     T00180002=
K1F0 050255Z AUTO 00000KT 10SM CLR 04/M01 A3027 RMK AO2=
K21D 050256Z AUTO 17008KT 10SM CLR M03/M05 A2997 RMK AO2=
K28J 050255Z AUTO 31014G22KT 10SM CLR 13/04 A3014 RMK AO2=
K3F3 050255Z AUTO 00000KT 10SM CLR 05/04 A3038 RMK AO2
     T00500035=
K3N8 050255Z AUTO 16008KT 10SM CLR M04/M07 A2971 RMK AO2
     T10431073=
K4A9 050255Z AUTO 33007KT 10SM CLR 02/M04 A3026 RMK AO2
     T00231040=
K57C 050255Z AUTO 26005KT 10SM OVC031 M02/M06 A3009 RMK AO2
     T10251056=
K5M9 050255Z AUTO 00000KT 10SM CLR 02/M02 A3026 RMK AO2
     T00151022=
KADH 050255Z AUTO 17005KT 10SM CLR 04/M03 A3027 RMK AO2=
KADS 050255Z AUTO 12004KT 10SM CLR 10/00 A3031 RMK AO2
     T00961005=
KAHQ 050255Z AUTO 17006KT 10SM CLR 00/M02 A2996 RMK AO2
     T00021020=
KAIT 050256Z AUTO 16011G14KT 10SM CLR M05/M08 A2983 RMK AO2=
KAMN 050256Z AUTO 29009KT 10SM -SN SCT036 OVC044 M01/M05 A3002 RMK
     AO2 T10071053=
KAND 050256Z AUTO 28012G20KT 10SM CLR 05/M03 A3008 RMK AO2 SLP186
     T00501028 53035=
KAPS 050255Z AUTO 00000KT 10SM CLR 10/02 A3038 RMK AO2
     T00950023=
KAQR 050255Z AUTO 00000KT 10SM CLR 00/M03 A3033 RMK AO2=
KART 050256Z AUTO 35003KT 10SM SCT038 OVC045 00/M02 A2972 RMK AO2
     SLP069 T00001017 52001=
KATP 050305Z AUTO 34014KT 10SM FEW033 18/05 A3035 RMK A01=
KAUH 050255Z AUTO 21012KT 10SM CLR 04/01 A2993 RMK AO2
     T00370009=
KAUN 050255Z AUTO 00000KT 1 1/4SM BR CLR 06/06 A3037 RMK A01=
KAXS 050300Z AUTO 12007KT 10SM CLR 05/M01 A3021 RMK AO2
     T00511007=
