SAXX60 KWBC 050300 RRB
METAR
KNYL 050257Z AUTO 00000KT 10SM CLR 14/02 A3025 RMK AO2 SLP242
     T01440022 53002 $=
KGTB 050256Z 32005KT 9SM -UP OVC003 M01/M02 A2969 RMK AO2A
     FZDZE23FZDZB25E54UPB54 SLP062 P0000 60000 T10111022 52003
     $=
KNFL 050256Z AUTO 36004KT 10SM CLR 01/M04 A3034 RMK AO2 SLP231
     T00111044 53007=
KOZR 050256Z AUTO 31005KT 10SM CLR 09/00 A3027 RMK AO2 SLP253
     T00851005 52026=
KPAM 050256Z AUTO M M M M M M RMK AO2 DZB18E27DZB28E33DZB34E37
     SLPNO RVRNO PNO FZRANO VISNO RWY32 CHINO RWY32 $=
KPOB 050256Z AUTO 30015G23KT 10SM SCT075 BKN100 10/M02 A2986 RMK
     AO2 PK WND 32031/40 SLP114 60000 T01001017 52048 $=
KPOE 050258Z AUTO 00000KT 10SM CLR 06/04 A3036 RMK AO2 SLP284
     T00610043 52012=
KRCA 050256Z AUTO 27010KT 10SM OVC130 08/M04 A2982 RMK AO2 SLP115
     T00821040 52022 $=
KRDR 050256Z AUTO 20014KT 10SM BKN130 M06/M08 A2966 RMK AO2 SLP066
     T10581079 57021=
KSZL 050256Z 19007KT 10SM CLR M01/M05 A3012 RMK AO2A SLP211
     T10091053 58016 $=
KVAD 050256Z AUTO 30018G25KT 10SM CLR 12/M02 A3018 RMK AO2 SLP222
     T01181021 52041 $=
KVOK 050256Z AUTO 17004KT 10SM M M08/M08 A3005 RMK AO2 SLP195
     T10821083 58002 $=
KVPS 050256Z 31007KT 10SM CLR 08/01 A3029 RMK SLP264 T00760012
     52025 $=
KWRB 050256Z 31023G28KT 10SM CLR 08/M03 A3018 RMK AO2A PK WND
     31029/22 SLP222 T00791030 52045=
KWRI 050256Z AUTO 33011G16KT 10SM SCT020 BKN042 07/04 A2956 RMK
     AO2 RAB28E43 SLP010 P0002 60002 T00650043 53006=
KDYS 050256Z 19007KT 10SM CLR 05/M04 A3025 RMK AO2A SLP244
     T00451038 58001 PNO FZRANO $=
KHLR 050258Z AUTO 16003KT 10SM CLR 12/00 A3031 RMK AO2 SLP264
     T01231004 52005=
KNFL 050256Z AUTO 36004KT 10SM CLR 01/M04 A3034 RMK AO2 SLP231
     T00111044 53007=
KNJK 050256Z AUTO 35004KT 7SM CLR 13/04 A3027 RMK AO2 SLP264
     T01330039 53003 $=
KNOG 050256Z AUTO 18006KT 10SM CLR A3039 RMK AO2 SLPNO 53017
     FZRANO $=
KNXP 050256Z AUTO 26009KT 10SM CLR 09/02 A3037 RMK AO2 SLP274
     T00940022 53014=
KSEQ 050258Z AUTO 21003KT 9SM R13/5500FT CLR 11/M01 A3039 RMK AO2
     SLP293 T01111011 52016=
KT70 050258Z AUTO 09005KT M M CLR 10/M04 A3028 RMK AO2 SLP254
     T00991045 52010 PWINO PNO $=
KMRT 050256Z AUTO 31008KT 10SM SCT019 BKN026 OVC033 01/M02 A3003
     RMK AO2 T00051017=
KHRT 050256Z 31005KT 10SM CLR 11/00 A3030 RMK AO2A SLP262
     T01061002 52025 $=
KMCC 050255Z AUTO 24003KT 5SM BR CLR 09/09 A3040 RMK AO2=
KVAD 050256Z AUTO 30018G25KT 10SM CLR 12/M02 A3018 RMK AO2 SLP222
     T01181021 52041 $=
KFTK 050256Z AUTO 27011KT 10SM OVC037 02/00 A3020 RMK AO2 UPB03E17
     SLP236 P0000 60000 T00191002 52018=
KHLR 050258Z AUTO 16003KT 10SM CLR 12/00 A3031 RMK AO2 SLP264
     T01231004 52005=
KHOP 050256Z AUTO 30005KT 10SM OVC038 03/M02 A3026 RMK AO2 SLP253
     T00331018 50013=
KHUA 050258Z AUTO 32004KT 10SM CLR 02/M04 A3030 RMK AO2 SLP266
     T00161036 52020=
KMIB 050256Z AUTO 26013KT 10SM CLR 04/M02 A2957 RMK AO2 SLP039
     T00441016 50007 $=
KNCA 050256Z AUTO 29015G23KT 10SM BKN040 BKN048 OVC075 16/08 A2974
     RMK AO2 SLP074 T01610078 53018 $=
KNFL 050256Z AUTO 36004KT 10SM CLR 01/M04 A3034 RMK AO2 SLP231
     T00111044 53007=
KNXP 050256Z AUTO 26009KT 10SM CLR 09/02 A3037 RMK AO2 SLP274
     T00940022 53014=
KPOE 050258Z AUTO 00000KT 10SM CLR 06/04 A3036 RMK AO2 SLP284
     T00610043 52012=
KRCA 050256Z AUTO 27010KT 10SM OVC130 08/M04 A2982 RMK AO2 SLP115
     T00821040 52022 $=
KT70 050258Z AUTO 09005KT M M CLR 10/M04 A3028 RMK AO2 SLP254
     T00991045 52010 PWINO PNO $=
