SAXX60 KWBC 050300 CCA
METAR
KNUW 050256Z 15016G24KT 10SM BKN023 BKN055 OVC080 09/03 A3032 RMK
     AO2 PK WND 15028/0214 SLP267 T00890033 53001 $=
KBKB 050254Z AUTO 00000KT 10SM CLR 06/04 A3034 RMK AO2 SLP306
     60000 T00560044 51012=
