SAMX43 MMMZ 050300
METAR MMCL 050248Z 00000KT 10SM  SKC 17/14 A3010 RMK SLP192 52016 909=
METAR MMDO 050246Z 00000KT 7SM  SKC 05/M04 A3051 RMK SLP322 52015 932=
METAR MMGM 050259Z  NIL=
METAR MMHO 050240Z 00000KT 10SM  SKC 15/05 A3021
      RMK SLP241 52006 901 HZY=
METAR MMLM 050243Z 28005KT 10SM  SKC 16/10 A3015 RMK SLP2010=
METAR MMLP 050242Z 03005KT 10SM  SKC 17/13 A3018
      RMK SLP221 52019 907 ISOL SC CI=
METAR MMML 050253Z 36003KT 10SM  SKC 15/03 A3025
      RMK SLP244 54000 963 ISOL CI=
METAR MMMZ 050244Z 02004KT 10SM  SCT240 16/15 A3009
      RMK SLP189 52010 910 8/002=
METAR MMSD 050246Z 29010KT 8SM  SKC 17/14 A3015 RMK SLP198 52010 904=
METAR MMSL 050247Z 30007KT 7SM  SCT240 17/14 A3014 RMK 8/008=
METAR MMTJ 050243Z 27005KT 8SM  SCT200 11/10 A3029
      RMK SLP262 53003 901 8/001=
