SPAU69 AMMC 050300
SPECI YSWG 050300Z AUTO 17015KT 0600 // BKN009 BKN019 25/12 Q1013=


