SASM20 SMJP 050300
METAR SMJP 050300Z VRB01KT 9999 FEW015 23/22 Q1014 NOSIG=
METAR SMZO 050300Z NIL=
