SACN62 CYPE 050300 
METAR CYPE 050300Z 26005KT 15SM SCT210 M17/M20 A2985 RMK CI3 SLP155=
