SACN65 CWSW 050300 
LWIS CWSW 050300Z AUTO 00000KT M01/M11 A3016=
