SAVN22 SVMI 050300
METAR SVMI 050300Z 11004KT FEW016 26/23 Q1014
