SACN64 CYUA 050300
METAR CYUA 050300Z AUTO 29013KT ////SM SCT055 M34/M39 A3024=
