SACH10 SCSC 050300
METAR SCFA 050300Z 24003KT 9999 OVC040 20/15 Q1016 NOSIG=
METAR SCAR 050300Z 31002KT 9999 SCT050 23/16 Q1017=
METAR SCBA 050300Z NIL=
METAR SCCF 050300Z 24018KT 9999 SCT060 14/09 Q1028=
METAR SCIE 050300Z 22018KT CAVOK 14/09 Q1015=
METAR SCAT 050300Z AUTO 34005KT 9999 // ///019 17/13 Q1017=
METAR SCDA 050300Z 24004KT 9999 FEW046 22/16 Q1016=
METAR SCSE 050300Z 30004KT 10000 OVC012 16/15 Q1015=
METAR SCJO 050300Z NIL=
METAR SCQP 050300Z 35006KT CAVOK 10/08 Q1017=
METAR SCTE 050300Z 26003KT 9999 BKN060 12/09 Q1018 NOSIG=
METAR SCVD 050300Z NIL=
METAR SCNT 050300Z NIL=
METAR SCCI 050300Z 01010KT 9999 -RA SCT040 OVC050 10/06 Q1000 NOSIG=
