SAZZ40 CWAO 050300 RRH
METAR KFTK 050256Z AUTO 27011KT 10SM OVC037 02/00 A3020 RMK AO2 UPB03E17
      SLP236 P0000 60000 T00191002 52018=
METAR KHLR 050258Z AUTO 16003KT 10SM CLR 12/00 A3031 RMK AO2 SLP264
      T01231004 52005=
METAR KHOP 050256Z AUTO 30005KT 10SM OVC038 03/M02 A3026 RMK AO2 SLP253
      T00331018 50013=
METAR KHUA 050258Z AUTO 32004KT 10SM CLR 02/M04 A3030 RMK AO2 SLP266
      T00161036 52020=
METAR KMIB 050256Z AUTO 26013KT 10SM CLR 04/M02 A2957 RMK AO2 SLP039
      T00441016 50007 $=
METAR KNCA 050256Z AUTO 29015G23KT 10SM BKN040 BKN048 OVC075 16/08
      A2974 RMK AO2 SLP074 T01610078 53018 $=
METAR KNFL 050256Z AUTO 36004KT 10SM CLR 01/M04 A3034 RMK AO2 SLP231
      T00111044 53007=
METAR KNXP 050256Z AUTO 26009KT 10SM CLR 09/02 A3037 RMK AO2 SLP274
      T00940022 53014=
METAR KPOE 050258Z AUTO 00000KT 10SM CLR 06/04 A3036 RMK AO2 SLP284
      T00610043 52012=
METAR KRCA 050256Z AUTO 27010KT 10SM OVC130 08/M04 A2982 RMK AO2 SLP115
      T00821040 52022 $=
METAR KT70 050258Z AUTO 09005KT M M CLR 10/M04 A3028 RMK AO2 SLP254
      T00991045 52010 PWINO PNO $=
METAR KWRI 050256Z AUTO 33011G16KT 10SM SCT020 BKN042 07/04 A2956 RMK
      AO2 RAB28E43 SLP010 P0002 60002 T00650043 53006=
METAR OAJL 050255Z 00000KT 8000 HZ FU BKN120 BKN130 04/M01 A3018 RMK
      AO2A SLPNO WND DATA ESTMD T00441012 53008=
METAR PHBK 050256Z AUTO 27008KT 10SM CLR 27/21 A3014 RMK AO2 SLP208
      T02670206 53004 $=
METAR PMDY 050256Z AUTO 20006KT 10SM CLR 23/21 A3013 RMK AO2 SLP201
      T02330211 53001=
