SACN62 CYGQ 050300 
METAR CYGQ 050300Z 34002KT 12SM -SN OVC014 M10/M12 A2992 RMK SC8 SLP160=
