SACN62 CYRJ 050300 
METAR CYRJ 050300Z 31009G15KT 20SM -SN OVC032 M09/M12 A2972 RMK SC8 SLP078=
