SACN62 CYTH 050300 
METAR CYTH 050300Z 08006KT 050V150 12SM -SN BKN011 OVC025 M16/M17 A2977 RMK SC6SC2 SLP109=
