SACN65 CYWY 050300 
LWIS CYWY 050300Z AUTO 34004KT 300V030 M26/M29 A3004=
