SACN62 CYPW 050300 
METAR CYPW 050300Z 11013G20KT 15SM BKN011 BKN078 05/03 A3020 RMK SF5AC2 LAST STFD OBS NEXT OBS 051500 UTC SLP231=
