SAUS80 KWBC 050300 RRD
METAR
KGNT 050255Z AUTO 33014KT 10SM CLR M02/M05 A3043 RMK AO2
     T10221052=
KSOW 050255Z AUTO 00000G10KT 10SM CLR 03/M06 A3042 RMK AO2=
KBTV 050254Z 35005KT 4SM -SN BR OVC006 M01/M03 A2966 RMK AO2
     SLP046 P0001 60004 T10111028 53007=
KCAR 050254Z AUTO 36003KT 10SM OVC027 M02/M06 A2959 RMK AO2 SLP029
     T10171056 58011=
KNYC 050251Z AUTO 30008KT 9SM -RA OVC024 07/03 A2957 RMK AO2 RAB05
     SLP006 P0001 60001 T00670033 51005 $=
K6R6 050253Z AUTO 28006KT 09/M06 A3030 RMK AO1 SLP253 T00891056
     53011=
KCQC 050253Z AUTO 28015KT 10SM CLR 04/M07 A3033 RMK AO2 SLP269
     T00441072 52007=
KJDN 050248Z AUTO 28021G32KT 04/M08 A2989 RMK AO1 PK WND
     30042/0210 SLP140 T00441083 51045=
KSDB 050253Z AUTO 32023KT 10SM CLR 07/00 A3035 RMK AO2 PK WND
     32026/0247 SLP258 T00670000 53001=
PHNY 050256Z AUTO 04016G20KT 10SM SCT029 23/22 A3018 RMK AO2
     SLP200 T02280217 53004=
PADK 050256Z AUTO 05015KT 10SM -RA BKN010 OVC036 01/M01 A2981 RMK
     AO2 RAE00B37SNB00E37 CIG 008V014 SLP095 P0001 60006 T00061006
     53004 FZRANO=
KIZA 050255Z AUTO 00000KT 7SM CLR 10/09 A3033 RMK AO2=
KJQF 050254Z 31009G17KT 10SM CLR 07/M03 A2998=
KPSN 050255Z AUTO 10004KT 10SM CLR 09/03 A3034 RMK AO2
     T00950034=
KSEP 050255Z AUTO 16004KT 10SM CLR 09/00 A3031 RMK AO2
     T00900001=
KCTY 050255Z AUTO 31009KT 10SM CLR 13/02 A3021 RMK AO2
     T01340019=
KCUL 050255Z AUTO 29007KT 10SM CLR 01/M01 A3026 RMK AO2=
KGIC 050255Z AUTO 21008KT 10SM CLR 00/M07 A3037 RMK AO1=
KHON 050255Z AUTO 17008KT 10SM CLR 01/M02 A2972 RMK AO2 SLP083
     T00061022 58026=
K4BM 050253Z AUTO 23014G20KT 10SM CLR M04/M13 A3030 RMK AO2=
KTKV 050255Z AUTO 00000KT 10SM OVC008 M06/M07 A2998 RMK AO2
     T10601075=
KGNA 050256Z AUTO 28004KT M01/M06 A2993 RMK AO1 SLP149 T10111056
     58005=
KDLH 050255Z 18008KT 6SM BR FEW009 BKN095 OVC120 M04/M07 A2988 RMK
     AO2 SLP142 T10441067 58015=
KN60 050252Z AUTO 04/M02 A2965 RMK AO1 SLP066 60001 T00441017
     50012 $=
KNYC 050251Z AUTO 30008KT 9SM -RA OVC024 07/03 A2957 RMK AO2 RAB05
     SLP006 P0001 60001 T00670033 51005 $=
KCAO 050255Z AUTO 23010KT 10SM CLR 07/M06 A3006 RMK AO2 SLP176
     T00721061 58010=
KRNO 050255Z 02003KT 10SM SCT250 06/M03 A3034 RMK AO2 SLP265
     T00561028 51011=
KSVE 050255Z AUTO 12004KT 10SM SCT038 01/M01 A3035 RMK AO2=
KCKP 050255Z AUTO 17010KT 10SM CLR 01/M03 A2990 RMK AO2
     T00051030=
KDVL 050256Z AUTO 20007KT 10SM OVC110 M04/M07 A2959 RMK AO2 SLP610
     T10441067 58015 FZRANO=
KLIC 050255Z AUTO 35007KT 10SM CLR M05/M08 A3006 RMK AO2 SLP217
     T10501083 53011=
KRLD 050255Z AUTO 21009G15KT 10SM CLR 08/00 A3039 RMK AO2
     T00820000=
KSCK 050255Z 31005KT 8SM CLR 09/08 A3039 RMK AO2 SLP292 T00940078
     53007=
KMKG 050255Z 31006KT 10SM OVC029 M01/M07 A3006 RMK AO2 SLP187
     T10061067 51014=
KPHP 050255Z AUTO 28009KT 10SM CLR 05/M02 A2979 RMK AO2 SLP105
     T00501017 53026=
KEAR 050256Z AUTO 21010KT 10SM CLR 04/M01 A2993 RMK AO2 SLP151
     T00391006 58013=
KINL 050255Z AUTO 14008KT 1 3/4SM -SN BR OVC031 M04/M06 A2981 RMK
     AO2 SNB26 SLP114 P0001 60001 T10391056 56021=
K77S 050255Z AUTO 04004KT 10SM BKN075 OVC100 06/04 A3044 RMK
     A01=
KSPD 050256Z AUTO 22005KT 01/M06 A3002 RMK AO1 SLP172 T00111061
     58007=
KD07 050256Z AUTO 27011KT 05/M02 A2976 RMK AO1 SLP103 T00501017
     53011=
KALK 050256Z AUTO 17005KT 10SM CLR 10/M06 A3039 RMK AO2 SLP249
     T01001056 53014=
KAAT 050255Z AUTO 04003KT 10SM BKN045 OVC110 02/M02 A3036 RMK AO2
     SLP295 T00171022 58000=
