SACN62 CYXT 050300 
METAR CYXT 050300Z 17013KT 2SM -SN FEW004 SCT007 BKN013 OVC021 01/00 A2975 RMK SN1SC1SC2SC2SC2 SLP085=
