SACN62 CYQH 050300 
METAR CYQH 050300Z 36003KT 8SM -SN OVC024 M21/M24 A2968 RMK SC8 SLP125=
