SABZ21 SBTE 050300
METAR SBTE 050300Z 30004KT 9999 FEW010 SCT020 BKN100 24/22 Q1013=
