SACN64 CWFD 050300
METAR CWFD 050300Z AUTO 02020G26KT ////SM //// OVC002 M31/M34 A2898=
