SACN65 CYSK 050300 
LWIS CYSK 050300Z AUTO 36014KT M14/M16 A2991=
