SAZZ40 CWAO 050300 RRG
METAR KADW 050256Z AUTO 32012G23KT 10SM FEW045 08/03 A2967 RMK AO2
      PK WND 31026/38 DZB08E22 SLP054 P0000 60002 T00820031 52019 $=
METAR KBLV 050256Z AUTO 18003KT 10SM CLR M02/M04 A3022 RMK AO2 SLP241
      T10231040 50000 $=
METAR KDAA 050256Z AUTO 31016G24KT 10SM FEW049 SCT100 09/02 A2970 RMK
      AO2 SLP060 T00910017 52021 $=
METAR KDYS 050256Z 19007KT 10SM CLR 05/M04 A3025 RMK AO2A SLP244 T00451038
      58001 PNO FZRANO $=
METAR KFAF 050256Z AUTO 34009G15KT 10SM -RA SCT022 OVC047 10/06 A2966
      RMK AO2 RAB24 SLP047 P0001 60003 T01030061 52042 $=
METAR KGTB 050256Z 32005KT 9SM -UP OVC003 M01/M02 A2969 RMK AO2A FZDZE23FZDZB25E54UPB54
      SLP062 P0000 60000 T10111022 52003 $=
METAR KGUS 050256Z AUTO 31013KT 10SM OVC022 00/M03 A3010 RMK AO2 SLP204
      T10051029 52016 $=
METAR KMGE 050256Z 31015G20KT 10SM BKN040 03/M05 A3021 RMK AO2A SLP234
      60000 T00341048 52038 $=
METAR KMUI 050256Z AUTO 30004KT 10SM SCT026 OVC035 05/01 A2968 RMK
      AO2 RAB06E15RAB39E54DZB54E55 SLP056 P0000 60000 T00480007 52018=
METAR KRDR 050256Z AUTO 20014KT 10SM BKN130 M06/M08 A2966 RMK AO2 SLP066
      T10581079 57021=
METAR KVPS 050256Z 31007KT 10SM CLR 08/01 A3029 RMK SLP264 T00760012
      52025 $=
METAR NFFN 050300Z 32013KT 9999 SCT028TCU SCT050 30/22 Q1010 NOSIG=
METAR PAEI 050256Z 00000KT 10SM SCT008 BKN040 M32/M36 A2983 RMK AO2A
      SLP129 T13191364 52007 $=
METAR PAGA 050256Z AUTO 00000KT 10SM FEW001 M38/ A2999 RMK AO2 SLP164
      T1378 53005 FZRANO=
METAR PGUA 050256Z 07012KT 10SM SCT018 28/22 A2993 RMK AO2A SLP126
      T02790219 57018 $=
