SAZZ40 CWAO 050300 RRI
METAR K1YT 050258Z AUTO 17011KT 10SM CLR 04/M02 A3031 RMK AO2 SLPNO
      T00411022 52011 $=
METAR K4MR 050258Z AUTO 26021KT 10SM CLR 09/M05 A3022 RMK AO2 SLP230
      T00941048 50001 $=
METAR K9L2 050258Z AUTO 29005KT 10SM CLR 09/00 A3028 RMK AO2 SLP264
      T00851002 53012 $=
METAR KBAB 050258Z AUTO 09004KT 3SM BR CLR 07/06 A3037 RMK AO2 SLP288
      T00730064 56002 $=
METAR KBIF 050258Z AUTO 00000KT 10SM CLR 07/M04 A3035 RMK AO2 SLP275
      T00651045 50004 $=
METAR KDMA 050258Z AUTO 10003KT 10SM CLR 08/04 A3031 RMK AO2 SLP259
      T00820035 52014 FZRANO $=
METAR KEDW 050258Z AUTO 00000KT 10SM CLR 08/02 A3027 RMK AO2 SLP260
      T00770022 53009=
METAR KFEW 050258Z AUTO 28022KT 10SM CLR 04/M07 A3012 RMK AO2 PK WND
      28029/33 SLP198 T00401074 52027 $=
METAR KNBG 050255Z AUTO 00000KT 10SM CLR 08/06 A3036 RMK AO2 SLP281
      T00780056 51022 $=
METAR KNJK 050256Z AUTO 35004KT 7SM CLR 13/04 A3027 RMK AO2 SLP264
      T01330039 53003 $=
METAR KNLC 050256Z AUTO 30008KT 7SM CLR 09/07 A3038 RMK AO2 SLP288
      T00940072 51015=
METAR KNYG 050256Z AUTO 33013KT 10SM -RA BR OVC100 09/03 A2972 RMK
      AO2 SLP064 P0000 60000 T00940028 53023=
METAR KWJF 050256Z 29007KT 10SM CLR 09/01 A3031 RMK AO2 SLP277 T00940006
      53011 $=
METAR RKSY 050258Z AUTO 00000KT 9999 CLR 05/M08 A3044 RMK AO2 SLP312
      T00461080 58004 $=
METAR TJSJ 050256Z 00000KT 10SM FEW028 FEW070 26/21 A3008 RMK AO2 SLP184
      60001 T02560211 50004 $=
