SAAK41 KNKA 050259
METAR PAPG 050258Z 00000KT 7SM -SN FEW008 BKN023 OVC040 00/M01 A2955
     RMK AO2 P0000 =
METAR PASC 050253Z COR 22006KT 5SM BR OVC011 M36/M41 A3033 RMK AO2
    SLP274 T1361 50000 $=
