SACN62 CYQI 050300 
METAR CYQI 050300Z 06007KT 2SM -DZ BR OVC016 03/03 A2953 RMK FG3SC5 SLP002=
