SPAU69 AMMC 050300
SPECI YWGT 050300Z AUTO 17013KT 4100 -SHRA OVC026 18/04 Q1017=


