SAFJ31 NFNA 050300
METAR NFNA 050300Z 11009KT 9999 SCT020TCU BKN050 30/21 Q1012=
