SACN62 CYQX 050300 
METAR CYQX 050300Z 29007KT 20SM OVC021 M02/M06 A2956 RMK SC8 MOON DMLY VISBL SLP020=
