SACN65 CYKD 050300 
LWIS CYKD 050300Z AUTO 34009G16KT M29/M33 A3024=
