SPCN61 CYGV 050258 
SPECI CYGV 050258Z AUTO 01009KT 9SM BKN023 OVC055 M09/M12 A2962 RMK SLP034=
